"SP_ID","OBJECTID_1","OBJECTID","SitRecID","Region","Country","ISO3","NatName","IntName","FinCode","SitLat","SitLong","SitArea","Protect","Num_PAs","IbaStatus","KbaStatus","AzeStatus","CREATEDBY","ADDEDBY","ADDEDDATE","CHANGEBY","CHANGEDATE","Query","SOURCE","DELTXT","DELGEOM","MarineIBA","Shape_Leng","Shape_Area","Lat_DD","Lon_DD","biome","area","matched_ib","matched__1","matched__2","matched__3","matched__4","glds90ag","glds95ag","glds00ag"
"0",5,17,38,"Europe","Czech Republic","CZE","Rezabinec","Rezabinec pond","CZ006",49.25,14.0833333333,111,"Whole",3,"confirmed",NA,NA,NA,"Gill Bunting, BirdLife International","2008/02/25",NA,NA,-1,"CSO, 250208, following European updates by Rob Pople",NA,"Refined polygon",NA,0.05489281946,0.00013718093,49.2537888677,14.0921081866,0,110.957,38,-9999,0,-9999,-9999,65.678001403809,66.19660949707,66.245429992676
"1",6,18,39,"Europe","Czech Republic","CZE","Zehunsk rybnk","Zehunsk rybnk pond","CZ002",50.1666666667,15.3166666667,1964,"Whole",6,"confirmed",NA,NA,NA,"Gill Bunting, BirdLife International","2008/02/25",NA,NA,-1,"CSO, 250208, following European updates by Rob Pople",NA,"Refined polygon",NA,0.27293965003,0.00247155977,50.1556689856,15.3271693835,0,1962.32,39,0,-9999,-9999,-9999,36.259811692768,37.446818974283,38.485524389479
"2",10,22,43,"Europe","Czech Republic","CZE","Stredn ndrz VDNM","Nove Mlyny middle reservoir","CZ009",48.9,16.6,1047,"Whole",3,"confirmed",NA,NA,NA,"Gill Bunting, BirdLife International","2008/02/25",NA,NA,-1,"CSO, 250208, following European updates by Rob Pople",NA,"Refined polygon",NA,0.1854653967,0.00128517503,48.8994482127,16.616117971,0,1046.94,43,-9999,-9999,1,-9999,40.029740668632,40.343071911786,40.361669746605
"3",26,42,63,"Europe","Greenland (to Denmark)","GRL","Itinneq","Itinneq","GL033",67,-52.3166666667,1500,"Little/none",0,"confirmed",NA,NA,"Tris Allinson, BirdlLife International","Gill Bunting, BirdLife International","2009/02/01",NA,NA,-1,"Provided by Partner",NA,"Refined polygon",NA,0.78148315763,0.0195783556,67.0243316304,-52.329056206,0,9470.13,63,0,-9999,-9999,-9999,0.019103819504,0.018406419083,0.019095519558
"4",60,76,97,"Europe","Faroe Islands (to Denmark)","FRO","Vtnini  Sandoy (Lakes of Sandoy)","Vtnini  Sandoy (Lakes of Sandoy)","FO015",61.8166666667,-6.81666666667,1000,"Little/none",0,"confirmed",NA,NA,"Tris Allinson, BirdlLife International","Gill Bunting, BirdLife International","2009/02/01",NA,NA,-1,"Provisional data provided by the Faroese Ornithological Society.","This site includes the lowland areas around Sandur with moorland and peatbogs, and the lakes GrSandsvatn, Stand LThere is hay cultivation and sheep-grazing.","Draft polygon",NA,0.3071419225,0.00157013892,61.8361890974,-6.80487432173,0,918.372,97,0,1,-9999,1,12.724156180581,11.78329200535,12.446375354306
"5",78,98,130,"Europe","Serbia","SRB","Fruska Gora","Fruska Gora","YU006",45.0666666667,19.5666666667,42000,"Most",1,"confirmed",NA,NA,NA,"Gill Bunting, BirdLife International","2010/08/13",NA,"1899/12/30",-1,"Recieved from Partner",NA,"Refined polygon",NA,4.98639913482,0.05630904442,45.1443649699,19.6639646155,0,49216.2,130,0,-9999,-9999,-9999,91.225184532771,91.890277434441,89.084267531769
"6",115,136,168,"Europe","Azerbaijan","AZE","Kurun Deltasy","Kura Delta","AZ046",39.3333333333,49.4,15000,"Unknown",1,"confirmed",NA,NA,NA,"Gill Bunting, BirdLife International","2009/10/30",NA,"1899/12/30",-1,"Recieved from Partner in December 2009",NA,"Refined polygon",NA,0.68325931682,0.01562371551,39.3574121295,49.3429881396,0,14970.1,168,0,-9999,-9999,-9999,41.381500244141,44.320739746094,46.375858306885
"7",116,137,169,"Europe","Azerbaijan","AZE","Kusari (Gusari)","Kusari (Gusari) area","AZ022",41.4833333333,48.3833333333,15000,"Unknown",1,"confirmed",NA,NA,NA,"Gill Bunting, BirdLife International","2009/10/30",NA,"1899/12/30",-1,"Recieved from Partner in December 2009",NA,"Refined polygon",NA,1.22695834558,0.01507088397,41.5337373338,48.2672348291,0,13980.1,169,-9999,-9999,-9999,1,51.906213286321,55.504768576338,57.935731213457
"8",121,142,174,"Europe","Azerbaijan","AZE","Ordubad","Ordubad area","AZ017",39.1833333333,45.9333333333,40000,"Whole",1,"confirmed",NA,NA,NA,"Gill Bunting, BirdLife International","2009/10/30",NA,"1899/12/30",-1,"Recieved from Partner in December 2009",NA,"Refined polygon",NA,1.02681355007,0.04012754148,39.1354219704,45.9747588831,0,38570.4,174,-9999,-9999,1,-9999,24.413252664882,26.217129143558,27.43800665755
"9",124,145,177,"Europe","Azerbaijan","AZE","Sangachal Buhtasy","Sangachal Bay","AZ039",40.15,49.5,4000,"Little/none",0,"confirmed",NA,NA,NA,"Gill Bunting, BirdLife International","2009/10/30",NA,"1899/12/30",-1,"Recieved from Partner in December 2009",NA,"Refined polygon",NA,0.23450201785,0.00107469294,40.1450893374,49.4853723806,0,1018.02,177,-9999,-9999,1,-9999,854.531494140625,915.235070180085,957.677716788599
"10",127,148,180,"Europe","Azerbaijan","AZE","Shahbuz","Shahbuz area","AZ016",39.5666666667,45.6833333333,7000,"Little/none",0,"confirmed",NA,NA,NA,"Gill Bunting, BirdLife International","2009/10/30",NA,"1899/12/30",-1,"Recieved from Partner in December 2009",NA,"Refined polygon",NA,0.33213247636,0.00700000665,39.5311266067,45.7769853404,0,6690.41,180,-9999,-9999,1,1,24.664730020089,26.544152189009,27.784130875427
"11",138,160,192,"Europe","Belarus","BLR","Balota Dzikoje","Balota Dzikoje","BY010",52.7666666667,24.2666666667,23145,"Whole",2,"confirmed",NA,NA,NA,"Gill Bunting, BirdLife International","2006/11/03","00:00:00",NA,-1,"BirdLife International: Global IBA Layer - 13th June 2008",NA,"Refined polygon",NA,1.30058033343,0.03082974396,52.7895551535,24.2468784042,0,23103.8,192,-9999,-9999,1,-9999,21.486644797646,20.760941183951,19.617000547524
"12",169,191,232,"Europe","Lithuania","LTU","Viesviles rezervatas","Viesvile Strict Nature Reserve","LT015",55.1333333333,22.4333333333,3220,"Whole",3,"confirmed",NA,NA,NA,"Gill Bunting, BirdLife International","2006/08/03","00:00:00",NA,-1,"BirdLife International: Global IBA Layer - 13th June 2008",NA,"Refined polygon",NA,0.47866235302,0.00453709528,55.1492894331,22.4398743631,0,3212.85,232,-9999,-9999,-9999,1,40.584156888132,41.277420218664,41.818116653967
"13",173,195,238,"Europe","Lithuania","LTU","Kauno marios (Kauno marios ir rytine ju pakrante)","Kauno Marios water reservoir & eastern coastal zone","LT023",54.85,24.1333333333,6323,"Whole",4,"confirmed",NA,NA,NA,"Gill Bunting, BirdLife International","2006/08/03","00:00:00",NA,-1,"BirdLife International: Global IBA Layer - 13th June 2008",NA,"Refined polygon",NA,1.3532661568,0.00884893125,54.8573841926,24.1399835537,0,6311.96,238,-9999,-9999,-9999,1,368.220029444922,359.512546372792,349.622928354475
"14",177,199,243,"Europe","Lithuania","LTU","Labunava (Labunavos miskai)","Labunava forest","LT021",55.1166666667,23.9833333333,5663,"Most",2,"confirmed",NA,NA,NA,"Gill Bunting, BirdLife International","2006/08/03","00:00:00",NA,-1,"BirdLife International: Global IBA Layer - 13th June 2008",NA,"Refined polygon",NA,0.5635805336,0.0030117802,55.1338590746,23.9924395909,0,2133.56,243,-9999,-9999,-9999,1,49.769102907729,49.751951502657,49.534407188152
"15",178,200,256,"Europe","Liechtenstein","LIE","Ruggeller Riet, Talgebiet","Ruggeller Riet, Talgebiet","LI001",47.2666666667,9.55,90,"Whole",2,"confirmed",NA,NA,NA,"Gill Bunting, BirdLife International","2006/08/01","00:00:00",NA,-1,"BirdLife International: Global IBA Layer - 13th June 2008",NA,"Refined polygon",NA,0.05452953678,0.00010624992,47.2540765534,9.54751741614,0,89.3675,256,0,-9999,-9999,1,256.838272094727,274.329605102539,282.033396402995
"16",206,229,303,"Europe","Latvia","LVA","Teicu un Pelecares purvi","Teici and Pelecare bogs","LV050",56.5833333333,26.45,26263,"Whole",6,"confirmed",NA,NA,NA,"Gill Bunting, BirdLife International","2006/09/05","Gill Bunting, Birdlife International","2010/09/16",-1,"BirdLife International: Global IBA Layer - 13th June 2008","Existing data shifted so as to provide a better fit to coastlines and SPA dataset.","Refined polygon",NA,2.32016260421,0.03840771129,56.5934134979,26.4882079563,0,26204.7,303,-9999,-9999,0,-9999,6.346992009618,6.091600993062,5.967634502961
"17",207,230,304,"Europe","Latvia","LVA","Berzpils purvi un palienes","Berzpils bogs and flood-plains","LV053",56.8666666667,27,14736,"Whole",5,"confirmed",NA,NA,NA,"Gill Bunting, BirdLife International","2006/09/05","Gill Bunting, Birdlife International","2010/09/16",-1,"BirdLife International: Global IBA Layer - 13th June 2008","Existing data shifted so as to provide a better fit to coastlines and SPA dataset.","Refined polygon",NA,1.05233974454,0.02169783234,56.8625429947,27.0039098482,0,14698.3,304,-9999,-9999,0,-9999,7.657515713364,7.308670570137,7.12735745083
"18",208,231,305,"Europe","Latvia","LVA","Babites ezers","Babite lake","LV022",56.9166666667,23.7333333333,3052,"Whole",2,"confirmed",NA,NA,NA,"Gill Bunting, BirdLife International","2006/09/05","Gill Bunting, Birdlife International","2010/09/16",-1,"BirdLife International: Global IBA Layer - 13th June 2008","Existing data shifted so as to provide a better fit to coastlines and SPA dataset.","Refined polygon",NA,0.55989110775,0.00450429732,56.917156168,23.7297535103,0,3046.8,305,-9999,-9999,0,-9999,92.135024796121,85.335011412278,80.684254775176
"19",209,232,307,"Europe","Latvia","LVA","Engures ezers","Engure lake","LV020",57.2666666667,23.1333333333,12726,"Whole",3,"confirmed",NA,NA,NA,"Gill Bunting, BirdLife International","2006/09/05","Gill Bunting, Birdlife International","2010/09/16",-1,"BirdLife International: Global IBA Layer - 13th June 2008","Existing data shifted so as to provide a better fit to coastlines and SPA dataset.","Refined polygon",NA,0.78821257001,0.01894832623,57.2504573415,23.1175518724,0,12702.4,307,0,-9999,0,-9999,16.624310171821,16.424396689155,16.560330387896
"20",211,234,310,"Europe","Latvia","LVA","Liepajas ezers","Liepaja lake","LV004",56.45,21.05,4818,"Whole",2,"confirmed",NA,NA,NA,"Gill Bunting, BirdLife International","2006/09/05","Gill Bunting, Birdlife International","2010/09/16",-1,"BirdLife International: Global IBA Layer - 13th June 2008","Existing data shifted so as to provide a better fit to coastlines and SPA dataset.","Refined polygon",NA,0.64503495176,0.00701874054,56.4549533788,21.0543282647,0,4806.25,310,-9999,-9999,0,-9999,304.053969555562,273.647734245451,251.434901638786
"21",215,238,318,"Europe","Latvia","LVA","Lubans un zivju diki","Lubans and fish-ponds","LV052",56.7333333333,26.8666666667,21338,"Whole",8,"confirmed",NA,NA,NA,"Gill Bunting, BirdLife International","2006/09/05","Gill Bunting, Birdlife International","2010/09/16",-1,"BirdLife International: Global IBA Layer - 13th June 2008","Existing data shifted so as to provide a better fit to coastlines and SPA dataset.","Refined polygon",NA,1.34325083611,0.0313179229,56.7359627689,26.8634655997,0,21286.8,318,-9999,-9999,-9999,0,7.966827708612,7.715368797039,7.630950298454
"22",227,250,333,"Europe","Latvia","LVA","Svetes lejtece","Svete lower reaches","LV028",56.7166666667,23.65,932,"Whole",2,"confirmed",NA,NA,NA,"Gill Bunting, BirdLife International","2006/09/05","Gill Bunting, Birdlife International","2010/09/16",-1,"BirdLife International: Global IBA Layer - 13th June 2008","Existing data shifted so as to provide a better fit to coastlines and SPA dataset.","Refined polygon",NA,0.29182730658,0.00136846486,56.7085054104,23.6656629996,0,930.826,333,-9999,-9999,-9999,0,192.783760813924,181.524748963195,174.502794265747
"23",231,254,337,"Europe","Latvia","LVA","Uzavas lejtece","Uzava lowland","LV012",57.15,21.5166666667,1434,"Whole",2,"confirmed",NA,NA,NA,"Gill Bunting, BirdLife International","2006/09/05","Gill Bunting, Birdlife International","2010/09/16",-1,"BirdLife International: Global IBA Layer - 13th June 2008","Existing data shifted so as to provide a better fit to coastlines and SPA dataset.","Refined polygon",NA,0.22152331075,0.00212858569,57.1485547699,21.5068163392,0,1430.89,337,-9999,-9999,-9999,0,5.154829062815,4.831367500185,4.620420054188
"24",234,257,344,"Europe","Latvia","LVA","Stikli","Stikli","LV016",57.3166666667,22.2666666667,7244,"Whole",2,"confirmed",NA,NA,NA,"Gill Bunting, BirdLife International","2006/09/05","Gill Bunting, Birdlife International","2010/09/16",-1,"BirdLife International: Global IBA Layer - 13th June 2008","Existing data shifted so as to provide a better fit to coastlines and SPA dataset.","Refined polygon",NA,0.8493132971,0.01080767396,57.3285725958,22.265319858,0,7229.77,344,-9999,-9999,-9999,0,6.278792071266,6.042302544886,5.940804813236
"25",235,258,346,"Europe","Latvia","LVA","Lielauces ezers","Lake Lielauce","LV025",56.5333333333,22.9,885,"Whole",2,"confirmed",NA,NA,NA,"Gill Bunting, BirdLife International","2006/09/05","Gill Bunting, Birdlife International","2010/09/16",-1,"BirdLife International: Global IBA Layer - 13th June 2008","Existing data shifted so as to provide a better fit to coastlines and SPA dataset.","Refined polygon",NA,0.16444549545,0.00129225176,56.529855672,22.9087506052,0,883.155,346,-9999,-9999,-9999,0,9.012504534288,8.554206005939,8.286473107028
"26",236,259,347,"Europe","Latvia","LVA","Ukru mezi","Ukri forest","LV026",56.3833333333,23.2,1144,"Whole",2,"confirmed",NA,NA,NA,"Gill Bunting, BirdLife International","2006/09/05","Gill Bunting, Birdlife International","2010/09/16",-1,"BirdLife International: Global IBA Layer - 13th June 2008","Existing data shifted so as to provide a better fit to coastlines and SPA dataset.","Refined polygon",NA,0.41960710899,0.0016637885,56.3755498599,23.1788712748,0,1141.7,347,-9999,-9999,-9999,0,14.926214077598,14.353459689492,14.013973256161
"27",243,266,358,"Europe","Latvia","LVA","Pededzes lejtece un Parabaine","Pededze forest and Parabaine","LV054",56.95,26.9,14737,"Whole",4,"confirmed",NA,NA,NA,"Gill Bunting, BirdLife International","2006/09/05","Gill Bunting, Birdlife International","2010/09/16",-1,"BirdLife International: Global IBA Layer - 13th June 2008","Existing data shifted so as to provide a better fit to coastlines and SPA dataset.","Refined polygon",NA,1.2231970679,0.02173783507,56.9251626675,26.8926983971,0,14700.7,358,0,-9999,-9999,-9999,6.536105646603,6.282805168302,6.166396822714
"28",258,312,406,"Europe","Bulgaria","BGR","Lomovete","Lomovete","BG025",43.675,26.107,27872,"Whole",6,"confirmed",NA,NA,NA,"Gill Bunting, BirdLife International","2006/06/20","00:00:00",NA,-1,"BirdLife International: Global IBA Layer - 13th June 2008",NA,"Draft polygon",NA,2.99362450236,0.03109188258,43.645773641,26.1125376265,0,27880.5,406,0,-9999,-9999,0,46.376749722784,43.864205458444,40.666060365645
"29",268,322,416,"Europe","Bulgaria","BGR","Ponor","Ponor","BG005",43.0628333333,23.173,31380,"Whole",2,"confirmed",NA,NA,NA,"Gill Bunting, BirdLife International","2006/06/20","00:00:00",NA,-1,"BirdLife International: Global IBA Layer - 13th June 2008",NA,"Draft polygon",NA,1.69624715868,0.03466752396,43.0596565553,23.1671120239,0,31388.5,416,-9999,-9999,0,-9999,24.736811898753,24.24285441649,23.260064056259
"30",269,323,417,"Europe","Bulgaria","BGR","Ribarnitsi Orsoya","Orsoya Fish-ponds","BG006",43.7908333333,23.0853333333,475,"Whole",3,"confirmed",NA,NA,NA,"Gill Bunting, BirdLife International","2006/06/20","00:00:00",NA,-1,"BirdLife International: Global IBA Layer - 13th June 2008",NA,"Draft polygon",NA,0.1347039965,0.0005316502,43.7904707546,23.0902262383,0,475.588,417,-9999,-9999,0,-9999,109.84119538338,103.11371538716,95.480710675639
"31",301,355,450,"Europe","Romania","ROU","Cheile Bicazului - Muntii Hasmas","Bicaz gorge and Hasmas Mountains","RO036",46.7455,25.8143333333,6933,"Whole",3,"confirmed",NA,NA,"Tris Allinson, BirdlLife International","Gill Bunting, BirdLife International","2009/02/01",NA,NA,-1,"Provided by Partner for 2006 poster map",NA,"Refined polygon",NA,1.38356408691,0.00816459691,46.7454601402,25.8143408354,0,6932.98,450,-9999,-9999,-9999,0,77.312777919284,75.177517203961,73.978565478729
"32",324,378,481,"Europe","Romania","ROU","Blahnita","Blahnita","RO085",44.4328333333,22.6283333333,45286,"Whole",2,"confirmed",NA,NA,"Tris Allinson, BirdlLife International","Gill Bunting, BirdLife International","2009/02/01",NA,NA,-1,"Provided by Partner for 2006 poster map",NA,"Refined polygon",NA,1.36638903232,0.05116931692,44.4328248363,22.6283469084,0,45278.7,481,0,-9999,-9999,-9999,42.266853239873,41.172000519931,40.150039639162
"33",332,386,494,"Europe","Iceland","ISL","Stokkseyri-Eyrarbakki","Stokkseyri-Eyrarbakki","IS020",63.8666666667,-21.1166666667,4300,"Little/none",0,"confirmed",NA,NA,NA,"Gill Bunting, BirdLife International","2010/10/20",NA,"1899/12/30",-1,"Recieved from Partner in March 2008","Recieved from Partner in March 2008","Refined polygon",NA,0.68718487046,0.00538283837,63.8366065432,-21.0438261728,0,2941.2,494,0,-9999,-9999,-9999,23.411342203425,27.825903672497,31.926693309925
"34",410,464,582,"Europe","Ireland","IRL","Rahasane turlough","Rahasane turlough","IE058",53.2166666667,-8.78333333333,257,"Whole",2,"confirmed",NA,NA,NA,"Gill Bunting, BirdLife International","2008/06/13",NA,NA,-1,"BirdLife International: Global IBA Layer - 13th June 2008",NA,"Refined polygon",NA,0.16894905736,0.00033111392,53.2213735251,-8.78886451104,0,245.667,582,0,-9999,-9999,-9999,17.942083994548,22.963347117106,29.976665284899
"35",418,472,590,"Europe","Ireland","IRL","Lough Gill","Lough Gill","IE071",52.2666666667,-10.0333333333,157,"Whole",3,"confirmed",NA,NA,NA,"Gill Bunting, BirdLife International","2008/06/13",NA,NA,-1,"BirdLife International: Global IBA Layer - 13th June 2008",NA,"Refined polygon",NA,0.09629263157,0.00020268023,52.2604362393,-10.0434936943,0,153.729,590,0,-9999,-9999,-9999,24.440019607544,25.8308801651,27.630769729614
"36",456,510,628,"Europe","Ireland","IRL","Lough Derravaragh","Lough Derravaragh","IE138",53.65,-7.33333333333,1120,"Whole",2,"confirmed",NA,NA,NA,"Gill Bunting, BirdLife International","2008/06/13",NA,NA,-1,"BirdLife International: Global IBA Layer - 13th June 2008",NA,"Refined polygon",NA,0.40105077345,0.00152230515,53.6496115214,-7.36322122004,0,1118.14,628,0,-9999,-9999,-9999,16.467557625337,16.268758188594,16.274083159187
"37",464,518,636,"Europe","Ireland","IRL","Dunfanaghy New Lake","Dunfanaghy New Lake","IE011",55.1666666667,-8,626,"Whole",2,"confirmed",NA,NA,NA,"Gill Bunting, BirdLife International","2008/06/13",NA,NA,-1,"BirdLife International: Global IBA Layer - 13th June 2008",NA,"Refined polygon",NA,0.18982217899,0.00088189706,55.1789544624,-8.00607490051,0,624.034,636,0,-9999,-9999,-9999,19.002670288086,19.943899154663,21.13950920105
"38",490,544,662,"Europe","Ireland","IRL","Owenduff River catchment and Nephin Beg","Owenduff River catchment and Nephin Beg","IE046",54.0333333333,-9.63333333333,25622,"Whole",3,"confirmed",NA,NA,NA,"Gill Bunting, BirdLife International","2008/06/13",NA,NA,-1,"BirdLife International: Global IBA Layer - 13th June 2008",NA,"Refined polygon",NA,1.80640379531,0.03649507925,54.0151334835,-9.69948248088,0,26572.8,662,0,-9999,-9999,-9999,4.203104027886,4.001027345119,3.888536571975
"39",494,548,666,"Europe","Ireland","IRL","All Saints bog","All Saints bog","IE133",53.1166666667,-7.93333333333,326,"Whole",2,"confirmed",NA,NA,NA,"Gill Bunting, BirdLife International","2008/06/13",NA,NA,-1,"BirdLife International: Global IBA Layer - 13th June 2008",NA,"Refined polygon",NA,0.1199468893,0.00052231653,53.1508482797,-7.98254627575,0,388.166,666,0,-9999,-9999,-9999,22.799699783325,23.400279998779,24.327709197998
"40",540,597,716,"Europe","Belgium","BEL","Vijverkomplex van Midden Limburg","Vijverkomplex van Midden Limburg","BE026",50.9666666667,5.3,2560,"Whole",6,"confirmed",NA,NA,NA,"Gill Bunting, BirdLife International","2006/08/01","00:00:00",NA,-1,"BirdLife International: Global IBA Layer - 13th June 2008",NA,"Refined polygon",NA,0.29038585025,0.00328114682,50.9858738191,5.3080378961,0,2559.6,716,0,-9999,-9999,-9999,547.095808402571,563.281812395368,575.820452816272
"41",555,612,737,"Europe","Belgium","BEL","Sinmurienne","Sinmurienne","BE047",49.6333333333,5.53333333333,32541,"Most",20,"confirmed",NA,NA,NA,"Gill Bunting, BirdLife International","2008/06/13","00:00:00",NA,-1,"BirdLife International: Global IBA Layer - 13th June 2008",NA,"Refined polygon",NA,2.15506966609,0.0404991058,49.6400896122,5.56618015469,0,32500.2,737,0,-9999,-9999,-9999,80.979346911934,84.127560341184,86.87764859754
"42",565,626,751,"Europe","Turkey","TUR","Karapinar Ovasi","Karapinar Plain","TR065",37.7666666667,33.6166666667,28370,"Some",2,"confirmed",NA,NA,NA,"Gill Bunting, BirdLife International","2006/08/02","00:00:00",NA,-1,"Doga Dernegi",NA,"Refined polygon",NA,0.94860829744,0.02902864001,37.7633432435,33.6315513397,0,28437.8,751,0,-9999,-9999,-9999,44.047698974609,49.371898651123,54.53258895874
"43",784,1066,1211,"Europe","Netherlands","NLD","Het Zwin (excl. Belgische deel)","Zwin (Dutch part)","NL033",51.3833333333,3.41666666667,128,"Whole",3,"confirmed",NA,NA,NA,"Gill Bunting, BirdLife International","2006/08/02","00:00:00",NA,-1,"BirdLife International: Global IBA Layer - 13th June 2008",NA,"Refined polygon",NA,0.08644231126,0.00018202652,51.3698244449,3.37277191678,0,140.819,1211,0,-9999,-9999,-9999,195.822777642144,270.611139085558,385.930770026313
"44",795,1077,1227,"Europe","Netherlands","NLD","Rijn: Heteren-Amerongen","Rijn: Heteren-Amerongen","NL049",51.95,5.66666666667,2480,"Whole",6,"confirmed",NA,NA,NA,"Gill Bunting, BirdLife International","2006/08/02","00:00:00",NA,-1,"BirdLife International: Global IBA Layer - 13th June 2008",NA,"Refined polygon",NA,1.92166281311,0.0042628306,51.967375744,5.54632889444,0,3254.61,1227,0,-9999,-9999,-9999,419.061915857652,429.910362931794,444.648179656384
"45",798,1080,1230,"Europe","Netherlands","NLD","Leekstermeer","Lake Leekstermeer","NL052",53.1833333333,6.43333333333,1450,"Whole",5,"confirmed",NA,NA,NA,"Gill Bunting, BirdLife International","2006/08/02","00:00:00",NA,-1,"BirdLife International: Global IBA Layer - 13th June 2008",NA,"Refined polygon",NA,0.28867754056,0.00208255411,53.1829155267,6.45467679981,0,1546.52,1230,0,-9999,-9999,-9999,525.102248128255,536.099782816569,542.519245402018
"46",813,1095,1247,"Europe","Netherlands","NLD","Zeevang","Polder Zeevang","NL069",52.55,5.03333333333,1250,"Some",2,"confirmed",NA,NA,NA,"Gill Bunting, BirdLife International","2006/08/02","00:00:00",NA,-1,"BirdLife International: Global IBA Layer - 13th June 2008",NA,"Refined polygon",NA,0.2925333641,0.00369918446,52.5436416062,5.01643165366,0,2787.82,1247,0,-9999,-9999,-9999,410.958169099326,430.533065296779,448.190047433443
"47",836,1118,1277,"Europe","Netherlands","NLD","Leenderbos en Groote Heide","Leenderbos and Groote Heide","NL103",51.3333333333,5.5,2270,"Whole",4,"confirmed",NA,NA,NA,"Gill Bunting, BirdLife International","2006/08/02","00:00:00",NA,-1,"BirdLife International: Global IBA Layer - 13th June 2008",NA,"Refined polygon",NA,0.43209391562,0.00325581615,51.3266622093,5.51668784722,0,2521.15,1277,0,-9999,-9999,-9999,214.618981416894,219.775181280873,239.574854290675
"48",874,1156,1316,"Europe","Finland","FIN","Kangasalan lintujrvet","Kangasala wetlands","FI064",61.45,24.0666666667,1093,"Some",1,"confirmed",NA,NA,NA,"Gill Bunting, BirdLife International","2008/06/13","00:00:00",NA,-1,"BirdLife International: Global IBA Layer - 13th June 2008",NA,"Refined polygon",NA,0.30914597955,0.0018382083,61.4439681005,24.0680905412,0,1088.88,1316,0,-9999,-9999,-9999,52.806560516357,54.548248291016,55.08911895752
"49",880,1162,1322,"Europe","Finland","FIN","Ruunaa","Ruunaa","FI058",63.3833333333,30.6666666667,12061,"Whole",2,"confirmed",NA,NA,NA,"Gill Bunting, BirdLife International","2008/06/13","00:00:00",NA,-1,"BirdLife International: Global IBA Layer - 13th June 2008",NA,"Refined polygon",NA,1.53494831294,0.02162999007,63.3997780823,30.5963069342,0,12001.8,1322,0,-9999,-9999,-9999,4.598968892689,4.256753881548,3.853062086246
"50",889,1171,1331,"Europe","Finland","FIN","Alajoki","Alajoki","FI049",63.1,22.9166666667,438,"Little/none",0,"confirmed",NA,NA,NA,"Gill Bunting, BirdLife International","2008/06/13","00:00:00",NA,-1,"BirdLife International: Global IBA Layer - 13th June 2008",NA,"Refined polygon",NA,0.14937513992,0.00077641463,63.0911240978,22.9008033691,0,435.436,1331,0,-9999,-9999,-9999,18.268621677306,18.119990418597,17.571775296839
"51",919,1201,1361,"Europe","Finland","FIN","Karunginjrvi","Karunginjrvi lake","FI019",66.0333333333,23.9833333333,660,"Whole",2,"confirmed",NA,NA,NA,"Gill Bunting, BirdLife International","2008/06/13","00:00:00",NA,-1,"BirdLife International: Global IBA Layer - 13th June 2008",NA,"Refined polygon",NA,0.28607942835,0.00130438317,66.0329604268,24.0174118641,0,656.594,1361,0,-9999,-9999,-9999,17.510868281534,17.352263071766,16.786110812671
"52",936,1218,1378,"Europe","Finland","FIN","Ksivarren tunturit","Ksivarsi fjelds","FI002",69,21.5,220078,"Whole",3,"confirmed",NA,NA,NA,"Gill Bunting, BirdLife International","2008/06/13","00:00:00",NA,-1,"BirdLife International: Global IBA Layer - 13th June 2008",NA,"Refined polygon",NA,3.24381598088,0.44129512879,69.0189667674,21.4801634478,0,195808,1378,0,-9999,-9999,-9999,0.346742399115,0.317024239695,0.284147216256
"53",960,1242,1403,"Europe","Hungary","HUN","BodrogzugTaktakz","BodrogzugTaktakz","HU039",48.25,21.3333333333,31853,"Most",9,"confirmed",NA,NA,NA,"Gill Bunting, BirdLife International","2006/08/01","00:00:00",NA,-1,"BirdLife International: Global IBA Layer - 13th June 2008",NA,"Refined polygon",NA,1.89084015182,0.03849998524,48.1617918394,21.4226380055,0,31823.5,1403,0,-9999,-9999,-9999,96.231236556124,94.033604237313,90.966969843583
"54",1152,1534,1764,"Europe","Spain","ESP","Monte Gorramendi - Peas de Itxusi","Gorramendi mountain and Itxusi crags","ES084",43.1666666667,-1.5,6300,"Whole",4,"confirmed",NA,NA,NA,"Gill Bunting, BirdLife International","2008/06/13",NA,NA,-1,"BirdLife International: Global IBA Layer - 13th June 2008",NA,"Refined polygon",NA,0.39183956401,0.00707739095,43.2261928687,-1.42581392893,0,6390.54,1764,0,-9999,-9999,-9999,20.805160564742,21.438996620366,21.932089091522
"55",1159,1541,1771,"Europe","Spain","ESP","Posets - La Maladeta","Posets-Maladeta","ES128",42.6666666667,0.5,44700,"Whole",6,"confirmed",NA,NA,NA,"Gill Bunting, BirdLife International","2008/06/13",NA,NA,-1,"BirdLife International: Global IBA Layer - 13th June 2008",NA,"Refined polygon",NA,1.37278507361,0.05058210044,42.6052276032,0.58232517573,0,46135.8,1771,0,-9999,-9999,-9999,6.272541824379,6.176662091615,6.039601732274
"56",1162,1544,1774,"Europe","Spain","ESP","Cerdanya","Cerdaa","ES134",42.5,1.75,22000,"Most",5,"confirmed",NA,NA,NA,"Gill Bunting, BirdLife International","2008/06/13",NA,NA,-1,"BirdLife International: Global IBA Layer - 13th June 2008",NA,"Refined polygon",NA,1.3281878241,0.02398193316,42.4382360227,1.68247853233,0,21932.4,1774,0,-9999,-9999,-9999,15.03173719673,17.874682903462,21.07434408163
"57",1165,1691,1921,"Europe","Spain","ESP","Tina Menor - Isla Sarnosa - Oyambre","Tina Menor-Sarnosa island-Oyambre","ES024",43.4166666667,-4.33333333333,1100,"Whole",2,"confirmed",NA,NA,NA,"Gill Bunting, BirdLife International","2008/06/13",NA,NA,-1,"BirdLife International: Global IBA Layer - 13th June 2008",NA,"Refined polygon",NA,0.75983013981,0.00176484917,43.3839628264,-4.40120126931,0,1589.44,1921,0,-9999,-9999,-9999,81.53024366064,81.064996960094,79.991702663088
"58",1210,1843,2083,"Europe","Ukraine","UKR","Petropavlovskiy liman","Petropavlivs'kyj lyman","UA041",48.4833333333,36.4,270,"Little/none",0,"confirmed",NA,NA,"Tris Allinson, BirdlLife International","Gill Bunting, BirdLife International","2009/10/19",NA,NA,-1,"1:100 000 scale site map provided as scanned jpeg by USPB.","Digitized in Google Earth from overlaid source map.","Refined polygon",NA,0.16643130549,0.00077276567,48.4799139428,36.3945367027,0,634.782,2083,0,-9999,-9999,-9999,53.948619842529,54.791530609131,53.80477142334
"59",1234,1867,2109,"Europe","Ukraine","UKR","Prichopskaya dolina r. Latorica","Latorytsya river valley near Chop","UA051",48.4666666667,22.3,7000,"Little/none",0,"confirmed",NA,NA,"Tris Allinson, BirdlLife International","Gill Bunting, BirdLife International","2009/10/19",NA,NA,-1,"1:100 000 scale site map provided as scanned jpeg by USPB.","Digitized in Google Earth from overlaid source map.","Refined polygon",NA,0.66695161885,0.00578076582,48.4648685431,22.2769708124,0,4750,2109,0,-9999,-9999,-9999,88.423517384249,91.021927642822,90.631368188297
"60",1471,2174,2424,"Europe","United Kingdom","GBR","Ben Alder","Ben Alder","UK108",56.816,-4.47266666667,2847,"Whole",3,"confirmed",NA,NA,"RSPB","Gill Bunting, BirdLife International","2012/09/06",NA,NA,-1,"Provided by Ian Fisher, RSPB in August 2012","Reduced boundary to SPA","Refined polygon",NA,0.6337253756,0.0042088331,56.8276413556,-4.47822534745,0,2853.76,2424,0,-9999,-9999,-9999,1.929747004647,1.923411549615,1.905336308085
"61",1474,2177,2427,"Europe","United Kingdom","GBR","Berwyn","Berwyn","UK081",52.8536666667,-3.485,24187,"Whole",6,"confirmed",NA,NA,"RSPB","Gill Bunting, BirdLife International","2012/09/06",NA,NA,-1,"Provided by Ian Fisher, RSPB in August 2012",NA,"Refined polygon",NA,4.62447041079,0.03239274936,52.8497029614,-3.45095247298,0,24241.6,2427,0,-9999,-9999,-9999,55.676219640913,56.846891730143,57.686874551583
"62",1537,2240,2494,"Europe","United Kingdom","GBR","Din Moss and Hoselaw Loch","Din Moss and Hoselaw Loch","UK162",55.5763333333,-2.31033333333,50,"Whole",4,"confirmed",NA,NA,"RSPB","Gill Bunting, BirdLife International","2012/09/06",NA,NA,-1,"Provided by Ian Fisher, RSPB in August 2012","Amended to SPA boundary and renamed from Hoselaw Loch","Refined polygon",NA,0.05026852946,7.210976e-05,55.5767029127,-2.30878507759,0,50.5146,2494,0,-9999,-9999,-9999,11.175020217896,11.545060157776,11.855890274048
"63",1548,2251,2505,"Europe","United Kingdom","GBR","Leighton Moss","Leighton Moss","UK036",54.1673333333,-2.79416666667,129,"Whole",5,"confirmed",NA,NA,"RSPB","Gill Bunting, BirdLife International","2012/09/06",NA,NA,-1,"Provided by Ian Fisher, RSPB in August 2012",NA,"Refined polygon",NA,0.06272544413,0.00017850793,54.1672963708,-2.79264369438,0,129.499,2505,0,-9999,-9999,-9999,160.453291320801,166.526020812988,171.770819091797
"64",1551,2254,2508,"Europe","United Kingdom","GBR","Gruinart Flats","Gruinart Flats","UK172",55.8531666667,-6.32283333333,3244,"Whole",4,"confirmed",NA,NA,"RSPB","Gill Bunting, BirdLife International","2012/09/06",NA,NA,-1,"Provided by Ian Fisher, RSPB in August 2012","Renamed from Loch Gruinart, Islay","Refined polygon",NA,0.84570325602,0.00467399659,55.8479421402,-6.32428231121,0,3251.59,2508,0,-9999,-9999,-9999,2.060096979141,2.045855998993,2.018562078476
"65",1557,2260,2514,"Europe","United Kingdom","GBR","Loch of Kinnordy","Loch of Kinnordy","UK178",56.6756666667,-3.04583333333,85,"Whole",4,"confirmed",NA,NA,"RSPB","Gill Bunting, BirdLife International","2012/09/06",NA,NA,-1,"Provided by Ian Fisher, RSPB in August 2012",NA,"Refined polygon",NA,0.07549939233,0.00012477982,56.6754673335,-3.0442429198,0,84.9494,2514,0,-9999,-9999,-9999,11.201246261597,11.894402742386,12.553912639618
"66",1600,2303,2562,"Europe","United Kingdom","GBR","North Yorkshire Moors","North Yorkshire Moors","UK049",54.3806666667,-0.87066666667,143490,"Whole",3,"confirmed",NA,NA,"RSPB","Gill Bunting, BirdLife International","2012/09/06",NA,NA,-1,"Provided by Ian Fisher, RSPB in August 2012","Removed seaward extensions","Refined polygon",NA,3.57875083319,0.19923273958,54.3741217421,-0.88261678916,0,143811,2562,0,-9999,-9999,-9999,115.534084281184,109.015104960515,103.286431249913
"67",1606,2309,2568,"Europe","United Kingdom","GBR","Pagham Harbour","Pagham Harbour","UK052",50.7648333333,-0.759,627,"Whole",3,"confirmed",NA,NA,"RSPB","Gill Bunting, BirdLife International","2012/09/06",NA,NA,-1,"Provided by Ian Fisher, RSPB in August 2012",NA,"Refined polygon",NA,0.41512000831,0.00080206429,50.7644139109,-0.76271852198,0,628.665,2568,0,-9999,-9999,-9999,244.729484395778,253.350107395903,260.686577330244
"68",1615,2318,2578,"Europe","United Kingdom","GBR","Portsmouth Harbour","Portsmouth Harbour","UK056",50.8268333333,-1.12716666667,1246,"Whole",3,"confirmed",NA,NA,"RSPB","Gill Bunting, BirdLife International","2012/09/06",NA,NA,-1,"Provided by Ian Fisher, RSPB in August 2012",NA,"Refined polygon",NA,0.61721890616,0.00159566668,50.8267696391,-1.1234847006,0,1249.03,2578,0,-9999,-9999,-9999,2471.96803989205,2539.18723485803,2592.6100483556
"69",1620,2323,2583,"Europe","United Kingdom","GBR","Kintyre Goose Roosts","Kintyre Goose Roosts","UK317",55.5106666667,-5.629,412,"Whole",5,"confirmed",NA,NA,"RSPB","Gill Bunting, BirdLife International","2012/09/06",NA,NA,-1,"Provided by Ian Fisher, RSPB in August 2012","Mostly new site, taking on some of Rhunahaorine Point and superseding (the separate site) Machrihanish.","Refined polygon",NA,0.29756354214,0.00058933138,55.5967562992,-5.61697385872,0,412.63,2583,0,-9999,-9999,-9999,9.970781017752,9.93454952801,9.864457438974
"70",1626,2329,2589,"Europe","United Kingdom","GBR","Rutland Water","Rutland Water","UK058",52.6501666667,-0.68683333333,1550,"Whole",3,"confirmed",NA,NA,"RSPB","Gill Bunting, BirdLife International","2012/09/06",NA,NA,-1,"Provided by Ian Fisher, RSPB in August 2012",NA,"Refined polygon",NA,0.50806214475,0.0020668582,52.6545413192,-0.65969342724,0,1553.71,2589,0,-9999,-9999,-9999,81.345832824707,85.142984644572,88.57317460378
"71",1632,2335,2595,"Europe","United Kingdom","GBR","Somerset Levels and Moors","Somerset Levels and Moors","UK060",51.198,-2.8405,7061,"Whole",13,"confirmed",NA,NA,"RSPB","Gill Bunting, BirdLife International","2012/09/06",NA,NA,-1,"Provided by Ian Fisher, RSPB in August 2012","Added missing parts of SPA and Ham Wall","Refined polygon",NA,1.80503325254,0.00909656031,51.115455972,-2.84933344869,0,7076.33,2595,0,-9999,-9999,-9999,159.261125313895,165.434055292039,170.795546642485
"72",1646,2349,2610,"Europe","United Kingdom","GBR","Tamar Estuaries Complex","Tamar Estuaries Complex","UK069",50.4245,-4.20283333333,1939,"Whole",5,"confirmed",NA,NA,"RSPB","Gill Bunting, BirdLife International","2012/09/06",NA,NA,-1,"Provided by Ian Fisher, RSPB in August 2012","Renamed from Tamar Complex","Refined polygon",NA,1.34635953961,0.00246070637,50.4135476945,-4.21827118028,0,1943.15,2610,0,-9999,-9999,-9999,447.950745037624,447.37824219295,444.117914199829
"73",1669,2372,2635,"Europe","United Kingdom","GBR","Wigtown Bay","Wigtown Bay","UK269",54.8726666667,-4.393,3402,"Whole",1,"confirmed",NA,NA,"RSPB","Gill Bunting, BirdLife International","2012/09/06",NA,NA,-1,"Provided by Ian Fisher, RSPB in August 2012",NA,"Refined polygon",NA,0.39501514958,0.00478023473,54.8619964774,-4.39315761359,0,3409.32,2635,0,-9999,-9999,-9999,12.052217080174,11.872245063918,11.629555274936
"74",1703,2406,2676,"Europe","United Kingdom","GBR","Langholm - Newcastleton Hills","Langholm - Newcastleton Hills","UK210",55.2146666667,-2.8735,7517,"Whole",2,"confirmed",NA,NA,"RSPB","Gill Bunting, BirdLife International","2012/09/06",NA,NA,-1,"Provided by Ian Fisher, RSPB in August 2012","Renamed from Newcastleton Hills","Refined polygon",NA,0.7543724941,0.0106544322,55.205239426,-2.8959313025,0,7534.14,2676,0,-9999,-9999,-9999,7.633850688026,7.451981683866,7.230992231071
"75",1716,2419,2691,"Europe","United Kingdom","GBR","South Walls and Switha","South Walls and Switha","UK248",58.7851666667,-3.203,262,"Some",2,"confirmed",NA,NA,"RSPB","Gill Bunting, BirdLife International","2012/09/06",NA,NA,-1,"Provided by Ian Fisher, RSPB in August 2012",NA,"Refined polygon",NA,0.24318264677,0.00040959134,58.7913670533,-3.16982983971,0,262.999,2691,0,-9999,-9999,-9999,7.111708164215,6.628647486369,6.132170200348
"76",1734,2437,2713,"Europe","Italy","ITA","Valle di Susa e Val Chisone","Susa and Chisone valleys","IT024",45.05,7,36881,"Most",11,"confirmed",NA,NA,NA,"Gill Bunting, BirdLife International","2008/06/13",NA,NA,-1,"BirdLife International: Global IBA Layer - 13th June 2008",NA,"Refined polygon",NA,1.9020513574,0.04208511936,44.9836426388,6.98750265121,0,36887.5,2713,0,-9999,-9999,-9999,19.56562772769,20.008189545825,20.325401993712
"77",1745,2452,2733,"Europe","Italy","ITA","Adamello-Brenta","Adamello-Brenta","IT045",46.1333333333,10.7666666667,107716,"Whole",35,"confirmed",NA,NA,NA,"Gill Bunting, BirdLife International","2008/06/13",NA,NA,-1,"BirdLife International: Global IBA Layer - 13th June 2008",NA,"Refined polygon",NA,3.86672455754,0.1254650089,46.1397906317,10.63187423,0,107730,2733,0,-9999,-9999,-9999,33.655882823983,34.012990309492,34.133016512072
"78",1765,2566,2875,"Europe","Italy","ITA","Magredi di Pordenone","Magredi of Pordenone","IT053",46.0166666667,12.7333333333,21332,"Most",4,"confirmed",NA,NA,NA,"Gill Bunting, BirdLife International","2008/06/13",NA,NA,-1,"BirdLife International: Global IBA Layer - 13th June 2008",NA,"Refined polygon",NA,0.81479364007,0.02477753728,46.0767258288,12.7691540847,0,21299.5,2875,0,-9999,-9999,-9999,126.460339119245,131.947470527979,136.633587713521
"79",1768,2576,2893,"Europe","Italy","ITA","Dolomiti","Dolomites","IT042",46.6666666667,12.0833333333,48852,"Whole",6,"confirmed",NA,NA,NA,"Gill Bunting, BirdLife International","2008/06/13",NA,NA,-1,"BirdLife International: Global IBA Layer - 13th June 2008",NA,"Refined polygon",NA,1.90591786619,0.05736346494,46.6424560666,12.1277737219,0,48803.3,2893,0,-9999,-9999,-9999,23.758563589392,23.842753955296,23.779677263346
"80",1798,2624,2946,"Europe","Romania","ROU","Bistret","Bistret","RO112",43.8555,23.5135,27482,"Most",2,"confirmed",NA,NA,"Tris Allinson, BirdlLife International","Gill Bunting, BirdLife International","2009/02/01",NA,NA,-1,"Provided by Partner for 2006 poster map",NA,"Refined polygon",NA,1.29258854194,0.0307521483,43.8555015703,23.5134338957,0,27479.4,2946,0,-9999,-9999,-9999,66.635716024028,64.28511299375,62.153782430278
"81",1918,2745,3078,"Europe","Serbia","SRB","Jegricka","Jegricka","YU004",45.3333333333,20.1666666667,5400,"Little/none",1,"confirmed",NA,NA,NA,"Gill Bunting, BirdLife International","2010/08/13",NA,"1899/12/30",-1,"Recieved from Partner",NA,"Refined polygon",NA,1.69787569616,0.00472612241,45.394129199,20.0909265335,0,4112.67,3078,0,-9999,-9999,-9999,92.542261248958,93.211143493652,90.353378295898
"82",1944,2772,3106,"Europe","Slovakia","SVK","Mal Karpaty","Mal Karpaty","SK002",48.4261666667,17.3556666667,55764,"Whole",41,"confirmed",NA,NA,NA,"Gill Bunting, BirdLife International","2006/09/04","<Null>",NA,-1,"BirdLife International: Global IBA Layer - 13th June 2008",NA,"Refined polygon",NA,2.38963530684,0.06761630185,48.4135232507,17.2908340068,0,55615.7,3106,0,-9999,-9999,-9999,110.474072374602,109.466441006631,106.309375271905
"83",1950,2778,3113,"Europe","Slovakia","SVK","Bukovsk vrchy","Bukovsk hills","SK027",49.034,22.3578333333,43320,"Whole",26,"confirmed",NA,NA,NA,"Gill Bunting, BirdLife International","2006/09/04","<Null>",NA,-1,"BirdLife International: Global IBA Layer - 13th June 2008",NA,"Refined polygon",NA,1.48178892302,0.05319115369,49.0499225592,22.3608468593,0,43200.5,3113,0,-9999,-9999,-9999,18.187874961624,18.028251435779,17.474752328942
"84",1961,2789,3131,"Europe","Serbia","SRB","Stara planina-Vidlic","Stara mountain-Vidlic","YU029",43.25,22.75,44000,"Unknown",1,"confirmed",NA,NA,NA,"Gill Bunting, BirdLife International","2010/08/13",NA,"1899/12/30",-1,"Recieved from Partner",NA,"Refined polygon",NA,2.4756994666,0.16704742823,43.3512732142,22.6263818612,0,150525,3131,0,-9999,-9999,-9999,97.270708290815,99.517468447895,97.82120738412
"85",2401,3232,6040,"Africa","Benin","BEN","Oum river basin","Oum river basin","BJ003",9.15,2.41666666667,465342,"Whole",3,"confirmed",NA,NA,"Paul Britten, RSPB","Gill Bunting, BirdLife International","2005/05/12",NA,NA,-1,"RSPB",NA,"Draft polygon",NA,5.39984726729,0.40615130548,9.07601914662,2.11897836873,0,496992,6040,1,-9999,-9999,-9999,9.105604865468,10.743527518814,12.268516121622
"86",2415,3246,6055,"Africa","Botswana","BWA","South-east Botswana","South-east Botswana","BW011",-25.1166666667,25.3333333333,750000,"Little/none",0,"confirmed",NA,NA,NA,"Gill Bunting, BirdLife International","2009/10/19",NA,"1899/12/30",-1,"IBA Directory description","Re-Digitized in Google Earth based on Directory description as RSPB polygon was found to overlap with missing site BW007","Draft polygon",NA,3.99438087381,0.79750286787,-25.0763947878,25.4272907327,0,895121,6055,1,-9999,-9999,-9999,15.368486524625,18.838428435307,21.611028061663
"87",2450,3281,6090,"Africa","Cte d'Ivoire","CIV","Parc National de la Como","Comoe National Park","CI001",9.18333333333,-3.7,1149150,"Whole",3,"confirmed",NA,NA,NA,"Gill Bunting, BirdLife International","2009/10/01",NA,"1899/12/30",-1,"SOS Forest, 2008, provided by Kouam Od Marie-Louise of SOS-Forets September 2009",NA,"Refined polygon",NA,4.5925609973,0.94016789706,9.11688712016,-3.72287630374,0,1150330,6090,1,-9999,-9999,-9999,4.520834791854,5.077355819958,5.503197972655
"88",2457,3288,6097,"Africa","Cte d'Ivoire","CIV","Fort Classe de Cavally et Goin - Db","Cavally and Goin - Debe Forest Reserves","CI008",6.16666666667,-7.8,211937,"Most",1,"confirmed",NA,NA,NA,"Gill Bunting, BirdLife International","2009/10/01",NA,"1899/12/30",-1,"SOS Forest, 2008, provided by Kouam Od Marie-Louise of SOS-Forets September 2009",NA,"Refined polygon",NA,1.6217252314,0.10634386952,6.34608589958,-7.80191165028,0,130974,6097,1,-9999,-9999,-9999,20.38280206838,27.039060470078,34.647635374503
"89",2487,3318,6127,"Africa","Cameroon","CMR","Mount Rata and Rumpi Hills Forest Reserve","Mount Rata and Rumpi Hills Forest Reserve","CM024",4.85,9.16666666667,50000,"Whole",1,"confirmed","confirmed","confirmed","Paul Britten, RSPB","Gill Bunting, BirdLife International","2005/05/12",NA,NA,-1,"RSPB",NA,"Draft polygon",NA,2.01505769858,0.0368519427,4.90072179646,9.08897673569,0,45500,6127,1,-9999,-9999,-9999,13.511921849559,15.442128523779,17.306059957109
"90",2546,3416,6238,"Africa","Ethiopia","ETH","Lake Ashenge","Lake Ashenge","ET004",12.5833333333,39.5,2700,"Little/none",0,"confirmed","confirmed",NA,"Tris Allinson, BirdlLife International","Gill Bunting, BirdLife International","2009/01/02",NA,NA,-1,"IBA directory description","Digitized in Google Earth from description in IBA directory","Draft polygon",NA,0.26239157113,0.00224688827,12.5898137849,39.5002641085,0,2717.4,6238,1,-9999,-9999,-9999,100.117317563012,116.713558741978,132.567867460705
"91",2550,3420,6242,"Africa","Ethiopia","ETH","Lake Abe wetland system","Lake Abe wetland system","ET008",11.2666666667,41.75,44000,"Little/none",0,"confirmed",NA,NA,"Tris Allinson, BirdlLife International","Gill Bunting, BirdLife International","2009/02/01",NA,NA,-1,"IBA directory description","Digitized in Google Earth from description in IBA directory","Draft polygon",NA,1.7527468448,0.0706247353,11.3392133124,41.6836874757,0,85809.3999998,6242,1,-9999,-9999,-9999,14.858585016253,17.311548392779,19.660205388249
"92",2568,3438,6262,"Africa","Ethiopia","ETH","Awash National Park","Awash National Park","ET028",8.915,40.035,74000,"Whole",1,"confirmed","confirmed",NA,"Paul Britten, RSPB","Gill Bunting, BirdLife International","2005/12/05",NA,NA,-1,"RSPB",NA,"Draft polygon",NA,1.02205572706,0.06069594506,8.9146911551,40.0350199823,0,74306,6262,1,-9999,-9999,-9999,46.873045332564,54.643538647689,62.066055969944
"93",2589,3459,6284,"Africa","Ethiopia","ETH","Bonga forest","Bonga forest","ET050",7.21,36.29,160000,"Whole",1,"confirmed","confirmed",NA,"Paul Britten, RSPB","Gill Bunting, BirdLife International","2005/12/05",NA,NA,-1,"RSPB",NA,"Draft polygon",NA,2.78031940926,0.13498230778,7.20994706825,36.2902129012,0,165948,6284,1,-9999,-9999,-9999,50.811920998809,59.235134956567,67.281416729417
"94",2637,3507,6333,"Africa","Ghana","GHA","Tano-Offin Forest Reserve","Tano-Offin Forest Reserve","GH023",6.66666666667,-2.16666666667,40200,"Whole",1,"confirmed","confirmed",NA,NA,"Gill Bunting, BirdLife International","2008/06/04","Ian May, BirdLife International","2008/06/04",-1,"BirdLife International, 2008, Extracted from SitMapGlobal on 14 Mar 2008",NA,"Draft polygon",NA,1.21571213727,0.0352173058,6.70363870851,-2.13758708089,0,43343,6333,1,-9999,-9999,-9999,74.800550010535,88.65386971539,102.559959129608
"95",2659,3529,6355,"Africa","Gambia","GMB","Samba Sotor to Kaur wetlands","Samba Sotor to Kaur wetlands","GM009",13.6333333333,-15.3833333333,1500,"Little/none",0,"confirmed",NA,NA,NA,"Gill Bunting, BirdLife International","2007/08/02",NA,NA,-1,"IBA directory description","Digitised from Google Earth imagery. Interpretation from IBA directory - Need to consult to check accuracy of interpretation","Draft polygon",NA,0.16838354437,0.00077108077,13.634789624,-15.3868240563,0,928.597,6355,1,-9999,-9999,-9999,86.203286814135,81.400527066963,82.201168503872
"96",2687,3557,6383,"Africa","Guinea-Bissau","GNB","Rio Cacheu","Rio Cacheu","GW001",12.1666666667,-16.3333333333,54000,"Whole",1,"confirmed",NA,NA,"Paul Britten, RSPB","Gill Bunting, BirdLife International","2005/05/12",NA,NA,-1,"RSPB",NA,"Draft polygon",NA,1.74765681376,0.04779602205,12.2927827208,-16.1276792138,0,57871,6383,1,-9999,-9999,-9999,19.852094556113,22.608236958111,25.161605599571
"97",2691,3561,6387,"Africa","Guinea-Bissau","GNB","Ilha de Bolama - Rio Grande de Buba","Ilha de Bolama - Rio Grande de Buba","GW005",11.5,-15.5,17197,"Whole",1,"confirmed",NA,NA,"Paul Britten, RSPB","Gill Bunting, BirdLife International","2005/05/12","Marine Team, BirdLife International","2012/10/09",-1,"RSPB with updates from Marine IBA identification process","The original RSPB boundary was clipped to the coastline to avoid overlap with ajoining marine IBA in Oct 2012","Draft polygon",NA,2.21621219071,0.01425415736,11.5903429832,-15.5079615213,0,17303.6,6387,1,-9999,-9999,-9999,52.114246260754,59.351054312115,66.055511961393
"98",2694,3564,6390,"Africa","Guinea-Bissau","GNB","Cantanhez forests","Cantanhez forests","GW008",11.25,-15,88357,"Most",1,"confirmed",NA,NA,"Paul Britten, RSPB","Gill Bunting, BirdLife International","2005/05/12","Marine Team, BirdLife International","2012/10/09",-1,"RSPB with updates from Marine IBA identification process","The original RSPB boundary was clipped to the coastline to avoid overlap with ajoining marine IBA in Oct 2012","Draft polygon",NA,1.95284946246,0.07318239416,11.3756533021,-14.9565278756,0,88906.1,6390,1,-9999,-9999,-9999,13.728032862116,15.633721662575,17.399777144236
"99",2695,3565,6391,"Africa","Kenya","KEN","Aberdare Mountains","Aberdare Mountains","KE001",-0.436,36.683,190000,"Whole",2,"confirmed","confirmed",NA,NA,"Gill Bunting, BirdLife International","2008/09/06","Ian May, BirdLife International","2008/06/09",-1,"BirdLife International SitMapGlobal, 15/02/2008",NA,"Draft polygon",NA,3.00165738709,0.15043484001,-0.43567005291,36.683286067,0,186413,6391,1,-9999,-9999,-9999,49.845933709417,54.895750520367,58.464734067319
"100",2705,3575,6401,"Africa","Kenya","KEN","Gede Ruins National Monument","Gede Ruins National Monument","KE011",-3.3,40.05,44,"Whole",1,"confirmed","confirmed",NA,NA,"Gill Bunting, BirdLife International","2008/06/09","Ian May, BirdLife International","2008/06/09",-1,"Conservation International, Shapefile: E_Arc_KBA_poly_20070918",NA,"Draft polygon",NA,0.02322317303,3.531329e-05,-3.30928759751,40.0170384572,0,43.6874,6401,1,-9999,-9999,-9999,234.261199951172,275.127197265625,312.510192871094
"101",2714,3584,6410,"Africa","Kenya","KEN","Shimba Hills","Shimba Hills","KE020",-4.25,39.4166666667,21740,"Whole",2,"confirmed","confirmed","confirmed",NA,"Gill Bunting, BirdLife International","2008/06/09","Ian May, BirdLife International","2008/06/09",-1,"Conservation International, Shapefile: E_Arc_KBA_poly_20070918","Site also contains an additional point location","Draft polygon",NA,0.76294772069,0.01770670518,-4.26186092835,39.3860185191,0,21881.5,6410,1,-9999,-9999,-9999,28.830504389721,33.857651863379,38.459198708394
"102",2718,3588,6414,"Africa","Kenya","KEN","Tsavo East National Park","Tsavo East National Park","KE024",-2.75,38.5833333333,1175000,"Whole",1,"confirmed",NA,NA,NA,"Gill Bunting, BirdLife International","2008/06/09","Ian May, BirdLife International","2008/06/09",-1,"BirdLife International SitMapGlobal, 15/02/2008",NA,"Draft polygon",NA,4.48074865926,1.07972117849,-2.78685788394,38.7486119685,0,1336290,6414,1,-9999,-9999,-9999,1.463107113241,1.670355672663,1.845295794386
"103",2740,3610,6438,"Africa","Kenya","KEN","Lake Naivasha","Lake Naivasha","KE048",-0.76666666667,36.35,23600,"Whole",1,"confirmed",NA,NA,"Tris Allinson, BirdlLife International","Gill Bunting, BirdLife International","2009/02/01",NA,NA,-1,"IBA directory description.","Digitized from IBA description using Google Earth.","Draft polygon",NA,0.66226757518,0.02218994927,-0.75120272775,36.3528702935,0,27495.5,6438,1,-9999,-9999,-9999,65.626554113039,78.774428506412,91.432373452821
"104",2791,3706,6537,"Africa","Madagascar","MDG","Marojejy National Park","Marojejy National Park","MG016",-14.4333333333,49.7,60150,"Whole",2,"confirmed","confirmed",NA,NA,"Gill Bunting, BirdLife International","2006/04/10",NA,"1899/12/30",-1,"Data supplied by Conservation International (MG_KBA_10_april_2006.shp)",NA,"Draft polygon",NA,1.39558598291,0.05009345137,-14.4352655727,49.7056375083,0,60116.2,6537,1,-9999,-9999,-9999,18.332064273584,21.102859480828,24.360217247898
"105",2855,3770,6608,"Africa","Mali","MLI","Lac Faguibine","Lac Faguibine","ML003",16.75,-4,45000,"Little/none",0,"confirmed",NA,NA,"Paul Britten, RSPB","Gill Bunting, BirdLife International","2005/05/12",NA,NA,-1,"RSPB",NA,"Draft polygon",NA,1.77134458403,0.04614528483,16.7351514916,-4.0132953493,0,54761.5,6608,1,-9999,-9999,-9999,1.130841599383,1.617642556039,1.820166558226
"106",2872,3788,6627,"Africa","Mauritania","MRT","El Ghallouya","El Ghallouya","MR005",21.5833333333,-10.5833333333,35000,"Little/none",0,"confirmed",NA,NA,NA,"Gill Bunting, BirdLife International","2009/10/23",NA,"1899/12/30",-1,"IBA directory description","Digitised from Google Earth imagery. Interpretation from IBA directory. Some sites have undefined area so boundaries should be treated as provisional.","Draft polygon",NA,1.02718646992,0.0306743208,21.5953620184,-10.6632647729,0,35343.5,6627,1,-9999,-9999,-9999,0.042338064297,0.042350186016,0.042658360623
"107",2876,3792,6631,"Africa","Mauritania","MRT","Argub el Jahfa","Argub el Jahfa","MR009",19.8333333333,-14.3333333333,54000,"Little/none",0,"confirmed",NA,NA,NA,"Gill Bunting, BirdLife International","2009/10/23",NA,"1899/12/30",-1,"IBA directory description","Digitised from Google Earth imagery. Interpretation from IBA directory. Some sites have undefined area so boundaries should be treated as provisional.","Draft polygon",NA,1.17512332879,0.0461722204,19.8244657879,-14.2725546209,0,53825.8,6631,1,-9999,-9999,-9999,0.63851060417,0.631404749532,0.63090467077
"108",2877,3793,6633,"Africa","Mauritania","MRT","Gabou","Gabou","MR011",18.2666666667,-12.3666666667,100,"Little/none",0,"confirmed",NA,NA,NA,"Gill Bunting, BirdLife International","2009/10/23",NA,"1899/12/30",-1,"IBA directory description","Digitised from Google Earth imagery. Interpretation from IBA directory","Draft polygon",NA,0.21975221897,0.00209939085,18.2794968146,-12.3649644109,0,2470.29,6633,1,-9999,-9999,-9999,2.082690954208,2.424931049347,2.840655088425
"109",2880,3796,6636,"Africa","Mauritania","MRT","Lac de Ml","Lac de Ml","MR014",16.95,-13.3666666667,5250,"Little/none",0,"confirmed",NA,NA,NA,"Gill Bunting, BirdLife International","2009/10/23",NA,"1899/12/30",-1,"IBA directory description","Digitised from Google Earth imagery. Interpretation from IBA directory. Some sites have undefined area so boundaries should be treated as provisional.","Draft polygon",NA,0.46309394306,0.00255841009,16.9576554166,-13.3505603678,0,3032.54,6636,1,-9999,-9999,-9999,3.410821914673,3.901809930801,4.491044425964
"110",2893,3809,6651,"Africa","Mauritius","MUS","East coast mountains","East coast mountains","MU005",-20.3,57.7,4400,"Little/none",0,"confirmed",NA,NA,NA,"Gill Bunting, BirdLife International","2007/08/02",NA,NA,-1,"IBA Directory","Scanned Mauritius map","Draft polygon",NA,0.57143790976,0.00820997259,-20.3107729571,57.700929682,0,9541.25,6651,1,-9999,-9999,-9999,211.719280659652,223.27797256598,232.70006417026
"111",2902,3818,6660,"Africa","Mauritius","MUS","Rodrigues mainland","Rodrigues mainland","MU014",-19.7,63.4333333333,5000,"Little/none",2,"confirmed","confirmed","confirmed",NA,"Gill Bunting, BirdLife International","2007/08/02",NA,NA,-1,"IBA directory description","Digitised from GCSH layer with reference to Google Earth imagery.","Draft polygon",NA,0.7537428393,0.00971916272,-19.7136444855,63.4209777618,0,11338.1,6660,1,-9999,-9999,-9999,280.385489861876,295.668099520261,308.170448018645
"112",2918,3834,6676,"Africa","Malawi","MWI","Liwonde National Park","Liwonde National Park","MW014",-14.8333333333,35.3333333333,54800,"Whole",1,"confirmed","confirmed",NA,"Paul Britten, RSPB","Gill Bunting, BirdLife International","2005/05/12",NA,NA,-1,"RSPB",NA,"Draft polygon",NA,1.28646712721,0.03944470401,-14.8670597206,35.3350814253,0,47243.5,6676,1,-9999,-9999,-9999,22.195888980076,23.275605144896,25.875221016226
"113",2919,3835,6677,"Africa","Malawi","MWI","Liwonde Hills Forest Reserve","Liwonde Hills Forest Reserve","MW015",-15.1333333333,35.5,29473,"Whole",1,"confirmed","confirmed",NA,"Paul Britten, RSPB","Gill Bunting, BirdLife International","2005/05/12",NA,NA,-1,"RSPB",NA,"Draft polygon",NA,0.96026983076,0.02824402726,-15.1171164059,35.4270997158,0,33788.9,6677,1,-9999,-9999,-9999,66.176095284682,69.338476804293,77.027553141667
"114",2935,3852,6694,"Africa","Mozambique","MOZ","Mount Chiperone","Mount Chiperone","MZ010",-16.494,35.705,16000,"Little/none",0,"confirmed","confirmed",NA,"Gill Bunting","Gill Bunting, BirdLife International","2010/11/03",NA,NA,-1,"IBA directory description","Digitised from Google Earth imagery based on interpretation of IBA directory description","Draft polygon",NA,0.45747283169,0.01375898098,-16.4943641318,35.704565075,0,16348.5,6694,1,-9999,-9999,-9999,42.876339544878,47.380101552238,48.959084215332
"115",2943,3860,6702,"Africa","Namibia","NAM","Mahango Game Reserve and Kavango river","Mahango Game Reserve and Kavango river","NA003",-18.3,20.6166666667,24462,"Whole",2,"confirmed",NA,NA,"Paul Britten, RSPB","Gill Bunting, BirdLife International","2005/05/12",NA,NA,-1,"RSPB",NA,"Draft polygon",NA,1.22494406604,0.04219144108,-18.2040101657,21.6093898111,0,49667.7,6702,1,-9999,-9999,-9999,2.610688377807,3.459507926009,4.405765414754
"116",2966,3883,6725,"Africa","Niger","NER","Dallol Boboye","Dallol Boboye","NE007",14,3.16666666667,70000,"Little/none",0,"confirmed",NA,NA,"Paul Britten, RSPB","Gill Bunting, BirdLife International","2005/05/12",NA,NA,-1,"RSPB",NA,"Draft polygon",NA,1.94982862974,0.092875603,13.9900574677,3.18342712418,0,111677,6725,1,-9999,-9999,-9999,48.424547258054,65.157900300826,87.104401326398
"117",2969,3886,6728,"Africa","Niger","NER","Mozagu reservoir","Mozagu reservoir","NE010",13.9,5.45,1300,"Little/none",0,"confirmed",NA,NA,"Tris Allinson, BirdlLife International","Gill Bunting, BirdLife International","2009/02/01",NA,NA,-1,"IBA directory description","Digitized in Google Earth from description in IBA directory","Draft polygon",NA,0.22972015727,0.00093091374,13.895151388,5.48589716219,0,1119.83,6728,1,-9999,-9999,-9999,46.167945725577,54.917449133737,64.914999621255
"118",3019,3936,6782,"Africa","Seychelles","SYC","Praslin National Park and surrounding areas","Praslin National Park and surrounding areas","SC003",-4.33333333333,55.7333333333,700,"Whole",2,"confirmed",NA,NA,NA,"Gill Bunting, BirdLife International","2007/08/02",NA,NA,-1,"IBA directory description","Digitised from Google Earth imagery. Interpretation from IBA directory - Need to consult to check accuracy of interpretation","Draft polygon",NA,0.11876194344,0.00100329881,-4.33393116674,55.7388420042,0,1239.74,6782,1,-9999,-9999,-9999,204.927703857422,222.038604736328,237.094299316406
"119",3025,3942,6788,"Africa","Seychelles","SYC","Montagne Glacis","Montagne Glacis","SC009",-4.56666666667,55.45,20,"Little/none",0,"confirmed",NA,NA,NA,"Gill Bunting, BirdLife International","2007/08/02",NA,NA,-1,"IBA directory description","Digitised from Google Earth imagery. Interpretation from IBA directory - Need to consult to check accuracy of interpretation","Draft polygon",NA,0.08444264777,0.00036019913,-4.57673098434,55.4450578799,0,444.937,6788,1,-9999,-9999,-9999,399.936401367188,433.286499023438,462.672485351562
"120",3037,3954,6800,"Africa","Sudan","SDN","Wadi Halfa","Wadi Halfa","SD001",21.9166666667,31.3166666667,10000,"Little/none",0,"confirmed",NA,NA,"Tris Allinson, BirdlLife International","Gill Bunting, BirdLife International","2009/02/01",NA,NA,-1,"IBA directory description","Digitized in Google Earth from description in IBA directory","Draft polygon",NA,1.31351909755,0.02044805398,21.6562002706,31.1583549165,0,23550.5,6800,1,-9999,-9999,-9999,0.331404685974,0.355540007353,0.395528286695
"121",3050,3967,6813,"Africa","South Sudan","SSD","Sudd (Bahr-el-Jebel system)","Sudd (Bahr-el-Jebel system)","SS004",8,31,5500000,"Some",3,"confirmed","confirmed",NA,"Tris Allinson, BirdlLife International","Gill Bunting, BirdLife International","2009/02/01",NA,NA,-1,"IBA directory description","Digitized from IBA description using Google Earth. Accuracy difficult to determine, but probably OK.","Draft polygon",NA,9.88960082639,1.87137033971,8.22061036125,30.6737612014,0,2294910,6813,1,-9999,-9999,-9999,9.861424455051,11.05302760077,12.296061275142
"122",3051,3968,6814,"Africa","South Sudan","SSD","Boma","Boma","SS005",6.43333333333,34,4000000,"Most",1,"confirmed",NA,NA,"Paul Britten, RSPB","Gill Bunting, BirdLife International","2009/10/09",NA,NA,-1,"RSPB",NA,"Draft polygon",NA,5.1104008609,1.38873361823,6.44094803637,34.070079927,0,1710030,6814,1,-9999,-9999,-9999,2.981967358026,3.352611392471,3.729859273031
"123",3057,3974,6820,"Africa","South Sudan","SSD","Kidepo","Kidepo","SS011",4.236,33.344,750000,"Unknown",1,"confirmed","confirmed",NA,"Paul Britten, RSPB","Gill Bunting, BirdLife International","2005/12/05",NA,NA,-1,"RSPB",NA,"Draft polygon",NA,4.4757499382,0.61414809781,4.23646571397,33.3437810901,0,758968,6820,1,-9999,-9999,-9999,6.331132095169,5.938639967181,6.613518963326
"124",3071,3988,6834,"Africa","Sierra Leone","SLE","Sierra Leone River Estuary","Sierra Leone River Estuary","SL005",8.61666666667,-13.05,295000,"Whole",1,"confirmed",NA,NA,"Paul Britten, RSPB","Gill Bunting, BirdLife International","2005/05/12",NA,NA,-1,"RSPB",NA,"Draft polygon",NA,1.98406377586,0.04584603107,8.53815828573,-13.0631702336,0,56182.8,6834,1,-9999,-9999,-9999,144.373600082698,151.80924716559,167.834774506937
"125",3096,4013,6859,"Africa","Somalia","SOM","Daalo","Daalo","SO003",11.1,47.65,250000,"Little/none",0,"confirmed",NA,NA,NA,"Gill Bunting, BirdLife International","2009/10/09",NA,NA,-1,"Based on description in IBA Directory","Digitized using Google Earth - southern, eastern and western boundaries estimated - moderatly confident of accuracy.","Draft polygon",NA,1.97557470866,0.17037230903,10.9616186518,47.3686071513,0,207273,6859,1,-9999,-9999,-9999,3.186115980148,2.645755052567,2.498605966568
"126",3149,4066,6914,"Africa","Togo","TGO","Oti Valley Faunal Reserve","Oti Valley Faunal Reserve","TG001",10.5833333333,0.66666666667,147840,"Whole",1,"confirmed",NA,NA,"Paul Britten, RSPB","Gill Bunting, BirdLife International","2005/05/12",NA,NA,-1,"RSPB",NA,"Draft polygon",NA,2.03825858736,0.11542162818,10.6410722857,0.67102910299,0,140570,6914,1,-9999,-9999,-9999,40.150945565345,44.757569382613,52.672717610057
"127",3150,4067,6915,"Africa","Togo","TGO","Kran National Park","Kran National Park","TG002",10.1333333333,0.68333333333,163640,"Whole",2,"confirmed",NA,NA,"Paul Britten, RSPB","Gill Bunting, BirdLife International","2005/05/12",NA,NA,-1,"RSPB",NA,"Draft polygon",NA,1.56632968104,0.0986673947,10.1263114691,0.65469549036,0,120364,6915,1,-9999,-9999,-9999,23.353509525717,26.001403387351,30.619354441872
"128",3153,4103,6952,"Africa","Tunisia","TUN","Chott Djerid","Chott Djerid","TN035",33.7166666667,8.38333333333,700000,"Little/none",0,"confirmed","confirmed",NA,NA,"Gill Bunting, BirdLife International",NA,NA,NA,-1,NA,NA,"Draft polygon",NA,11.4587441016,0.56457584853,33.7494212208,8.55355020815,0,581718,6952,1,-9999,-9999,-9999,13.810401373041,15.444844011709,16.182416258703
"129",3162,4117,6967,"Africa","Tanzania","TZA","Lake Manyara National Park","Lake Manyara National Park","TZ004",-3.66666666667,35.8333333333,109699,"Some",3,"confirmed",NA,NA,NA,"Gill Bunting, BirdLife International","2008/06/09","Ian May, BirdLife International","2008/06/09",-1,"BirdLife International, SitMapGlobal: 18/02/08",NA,"Draft polygon",NA,1.35302848183,0.04912346115,-3.59635265509,35.7445455634,0,60754.1,6967,1,-9999,-9999,-9999,42.924439038636,51.664577416735,59.113902832014
"130",3166,4121,6972,"Africa","Tanzania","TZA","Serengeti National Park","Serengeti National Park","TZ009",-2.41666666667,34.8333333333,1476300,"Whole",3,"confirmed","confirmed",NA,NA,"Gill Bunting, BirdLife International","2008/06/09","Ian May, BirdLife International","2008/06/09",-1,"BirdLife International, SitMapGlobal: 18/02/08",NA,"Draft polygon",NA,6.63479590418,1.07731893674,-2.32318193571,34.7861468535,0,1333840,6972,1,-9999,-9999,-9999,27.341939879233,32.763966745599,37.343160642302
"131",3179,4134,6986,"Africa","Tanzania","TZA","Lake Eyasi","Lake Eyasi","TZ023",-3.66666666667,35.1666666667,116000,"Little/none",0,"confirmed",NA,NA,NA,"Gill Bunting, BirdLife International","2008/06/09","Ian May, BirdLife International","2008/06/09",-1,"BirdLife International, SitMapGlobal: 18/02/08",NA,"Draft polygon",NA,1.68526852856,0.09697865381,-3.56294142196,35.0757818334,0,119943,6986,1,-9999,-9999,-9999,27.634478395415,33.52305539879,38.667271971627
"132",3185,4140,6992,"Africa","Tanzania","TZA","Mtera reservoir","Mtera reservoir","TZ029",-7.08333333333,35.8333333333,66000,"Little/none",0,"confirmed",NA,NA,NA,"Gill Bunting, BirdLife International","2008/06/09","Ian May, BirdLife International","2008/06/09",-1,"BirdLife International, SitMapGlobal: 18/02/08",NA,"Draft polygon",NA,1.43852306747,0.08522103365,-7.01730197644,35.8313647721,0,104815,6992,1,-9999,-9999,-9999,28.698968773347,33.04467653776,36.185014839102
"133",3196,4151,7003,"Africa","Tanzania","TZA","Lake Victoria: Mwanza Gulf","Lake Victoria: Mwanza Gulf","TZ040",-2.5,32.8333333333,25000,"Little/none",0,"confirmed","confirmed",NA,NA,"Gill Bunting, BirdLife International","2008/06/09","Ian May, BirdLife International","2008/06/09",-1,"BirdLife International, SitMapGlobal: 18/02/08",NA,"Draft polygon",NA,1.65597285798,0.03453348048,-2.48653068546,32.803612621,0,42753.5,7003,1,-9999,-9999,-9999,118.648902893066,143.693298339844,165.419296264648
"134",3197,4152,7004,"Africa","Tanzania","TZA","Lake Victoria: Mara Bay and Masirori swamp","Lake Victoria: Mara Bay and Masirori swamp","TZ041",-1.5,33.8333333333,50000,"Little/none",0,"confirmed","confirmed",NA,NA,"Gill Bunting, BirdLife International","2008/06/09","Ian May, BirdLife International","2008/06/09",-1,"BirdLife International, SitMapGlobal: 18/02/08",NA,"Draft polygon",NA,1.93196156567,0.05863771771,-1.47935040021,34.1195872158,0,72639.7,7004,1,-9999,-9999,-9999,92.195859786352,108.064325523059,120.406270235062
"135",3241,4196,7049,"Africa","Uganda","UGA","Semliki National Park","Semliki National Park","UG009",0.826,30.06,22000,"Whole",1,"confirmed","confirmed",NA,"Paul Britten, RSPB","Gill Bunting, BirdLife International","2005/12/05",NA,NA,-1,"RSPB",NA,"Draft polygon",NA,0.80659782349,0.0175901295,0.82640336403,30.0595149377,0,21795.4,7049,1,-9999,-9999,-9999,62.384169351217,80.462855730519,101.802471821197
"136",3278,4332,7185,"Africa","Zambia","ZMB","Mosi-Oa-Tunya National Park and Batoka Gorge","Mosi-Oa-Tunya National Park and Batoka Gorge","ZM013",-17.9333333333,26.0666666667,8600,"Most",2,"confirmed",NA,NA,"Paul Britten, RSPB","Gill Bunting, BirdLife International","2005/05/12",NA,NA,-1,"RSPB",NA,"Draft polygon",NA,2.95263053842,0.00717954217,-17.9058602366,25.9865889853,0,8465.96,7185,1,-9999,-9999,-9999,35.376832255693,39.996822684725,44.31098719735
"137",3280,4334,7187,"Africa","Zambia","ZMB","Kafue Flats","Kafue Flats","ZM015",-15.75,27.2666666667,650500,"Whole",4,"confirmed",NA,NA,"Paul Britten, RSPB","Gill Bunting, BirdLife International","2005/05/12",NA,NA,-1,"RSPB",NA,"Draft polygon",NA,4.01185610408,0.52833633243,-15.6432804546,27.264555733,0,630462,7187,1,-9999,-9999,-9999,12.143560498385,13.724625420348,15.215791382488
"138",3311,4365,7219,"Africa","Zimbabwe","ZWE","Middle Zambezi Valley","Middle Zambezi Valley","ZW012",-15.75,29.5833333333,682500,"Whole",5,"confirmed",NA,NA,"Paul Britten, RSPB","Gill Bunting, BirdLife International","2005/05/12",NA,NA,-1,"RSPB",NA,"Draft polygon",NA,4.87941079129,0.82632027089,-16.0201635907,29.5634485928,0,984205,7219,1,-9999,-9999,-9999,11.716974148981,13.874037603613,16.074925885798
"139",10976,96807,6215,"Africa","Egypt","EGY","El Qasr desert","El Qasr desert","EG029",31.0833333333,26.5833333333,750000,"Little/none",0,"confirmed",NA,NA,"WDPA","Gill Bunting, BirdLife International","2013/03/04",NA,NA,-1,"Extracted from WDPA in February 2013","Extracted from WDPA in February 2013, and reviewed by Sherif Baha El Din",NA,NA,2.81625412091,0.38193741711,31.0469912289,26.4710790162,0,405510,6215,1,-9999,-9999,-9999,3.158214539485,3.364381010516,3.558715833897
"140",11087,0,6626,"Africa","Mauritania","MRT","Kediet ej Jill","Kediet ej Jill","MR004",22.6666666667,-12.6,110000,"Little/none",0,"confirmed",NA,NA,NA,"Gill Bunting, BirdLife International","2009/10/23","Gill Bunting, BirdLife International","2013/03/13",0,"Digitized from IBA Directory description.","Original interpretation of boundary was changed in March 2013 to include salt lake as well as mountain range as per directory description and now visible on updated imagery.","Draft Polygon",NA,2.02682462758,0.09065512849,22.6619924391,-12.6723139083,0,103667,6626,1,-9999,-9999,-9999,2.312678623106,2.928012525995,3.731286989487
"141",11649,275,367,"Europe","Portugal","PRT","Tejo Internacional","Upper River Tejo","PT013",39.7166666667,-7.25,25764,"Whole",2,"confirmed","confirmed",NA,NA,"Gill Bunting, BirdLife International","2008/06/13",NA,NA,-1,"BirdLife International: Global IBA Layer - 13th June 2008",NA,"Refined polygon",NA,2.71178334289,0.02563097842,39.7201970064,-7.25454720141,0,24430.5,367,-9999,-9999,0,-9999,12.20786251041,12.107634009141,12.2472293977
"142",11650,276,368,"Europe","Portugal","PRT","Paul do Boquilobo","Paul do Boquilobo","PT015",39.3666666667,-8.53333333333,432,"Whole",4,"confirmed","confirmed",NA,NA,"Gill Bunting, BirdLife International","2008/06/13",NA,NA,-1,"BirdLife International: Global IBA Layer - 13th June 2008",NA,"Refined polygon",NA,0.09215950477,0.00045253703,39.3805937339,-8.53461361493,0,433.458,368,-9999,-9999,0,-9999,82.395401306152,79.792902832031,78.434181518555
"143",11670,296,389,"Europe","Portugal","PRT","Cabeo","Cabeo","PT016",39.1,-8.01666666667,48606,"Whole",1,"confirmed","confirmed",NA,NA,"Gill Bunting, BirdLife International","2008/06/13",NA,NA,-1,"BirdLife International: Global IBA Layer - 13th June 2008",NA,"Refined polygon",NA,1.20784638617,0.05061361933,39.1050187688,-8.00689470748,0,48670.5,389,0,-9999,-9999,-9999,12.933443424836,12.052406855495,11.430361639455
"144",11701,670,799,"Europe","Turkey","TUR","Karamik Sazligi","Karamik Marshes","TR032",38.4333333333,30.8333333333,9335,"Whole",1,"confirmed","confirmed",NA,NA,"Gill Bunting, BirdLife International","2006/08/02","00:00:00",NA,-1,"Doga Dernegi",NA,"Refined polygon",NA,0.46091411668,0.00963809593,38.4378456523,30.8423043343,0,9355.21,799,0,-9999,-9999,-9999,51.256931304932,53.86344909668,55.777019500732
"145",11715,853,997,"Europe","Greece","GRC","Oros Beles (Kerkini)","Mount Beles (Kerkini)","GR022",41.3333333333,23.0666666667,34000,"Whole",2,"confirmed","confirmed",NA,NA,"Gill Bunting, BirdLife International","2009/10/09",NA,NA,-1,"Recieved from Partner in 2009",NA,"Refined polygon",NA,1.21240074553,0.03571282119,41.3096029055,23.1397738788,0,33242.6,997,0,-9999,-9999,-9999,28.40913923593,28.923337371158,28.940175682495
"146",11793,932,1076,"Europe","Greece","GRC","Oros Dikti","Mount Dikti","GR190",35.1666666667,25.5,54000,"Whole",7,"confirmed","confirmed",NA,NA,"Gill Bunting, BirdLife International","2009/10/09",NA,NA,-1,"Recieved from Partner in 2009",NA,"Refined polygon",NA,1.60285955727,0.05622960243,35.1462779258,25.5178680954,0,56976.2,1076,0,-9999,-9999,-9999,44.966616022653,45.668838103367,45.564823142388
"147",11839,978,1122,"Europe","Greece","GRC","Oros Erimanthos","Mount Erimanthos","GR097",37.95,21.85,36900,"Most",2,"confirmed","confirmed",NA,NA,"Gill Bunting, BirdLife International","2009/10/09",NA,NA,-1,"Recieved from Partner in 2009",NA,"Refined polygon",NA,1.03182548471,0.03952254045,37.927671448,21.8416983418,0,38632,1122,0,-9999,-9999,-9999,17.067309370371,16.089788607622,14.899725870063
"148",11871,1012,1156,"Europe","Greece","GRC","Nisida Agioi Theodori","Agioi Theodori islet","GR177",35.55,23.9666666667,80,"Whole",2,"confirmed","confirmed",NA,NA,"Gill Bunting, BirdLife International","2009/10/09",NA,NA,-1,"Recieved from Partner in 2009",NA,"Refined polygon",NA,0.04756742182,8.168849e-05,35.5370543745,23.9311620793,0,82.3737,1156,0,-9999,-9999,-9999,326.142791748047,331.207885742188,330.471008300781
"149",11910,1450,1680,"Europe","Spain","ESP","Ro Huebra - Arribes del Duero","Ro Huebra-Arribes del Duero","ES064",40.8333333333,-6.75,170000,"Most",5,"confirmed","confirmed",NA,NA,"Gill Bunting, BirdLife International","2008/06/13",NA,NA,-1,"BirdLife International: Global IBA Layer - 13th June 2008",NA,"Refined polygon",NA,3.04416276672,0.17173044232,40.9811503489,-6.6073615706,0,160654,1680,0,-9999,-9999,-9999,10.468554380968,10.09127978723,9.648675406848
"150",11938,1478,1708,"Europe","Spain","ESP","Tarancn - Ocaa - Corral de Almaguer","Tarancn-Ocaa-Corral de Almaguer","ES193",40,-3,129100,"Some",2,"confirmed","confirmed",NA,NA,"Gill Bunting, BirdLife International","2008/06/13",NA,NA,-1,"BirdLife International: Global IBA Layer - 13th June 2008",NA,"Refined polygon",NA,2.0226269884,0.13681267408,39.8760002152,-3.14210178518,0,130110,1708,0,-9999,-9999,-9999,21.096419296695,21.141177500764,21.048999549413
"151",11964,1504,1734,"Europe","Spain","ESP","Llanos de Brozas y Pinar de Garrovillas","Brozas-Membro","ES293",39.6666666667,-6.83333333333,94000,"Most",13,"confirmed","confirmed",NA,NA,"Gill Bunting, BirdLife International","2008/06/13",NA,NA,-1,"BirdLife International: Global IBA Layer - 13th June 2008",NA,"Refined polygon",NA,1.70386588902,0.10323566046,39.5742461235,-6.77181394665,0,98608.3,1734,0,-9999,-9999,-9999,9.451605693959,9.24852477959,8.982439826059
"152",11971,1511,1741,"Europe","Spain","ESP","Llanos de Olivenza - La Albuera, Badajoz y Villalba de los Barros","Olivenza-La Albuera","ES276",38.8333333333,-6.83333333333,79000,"Some",4,"confirmed","confirmed",NA,NA,"Gill Bunting, BirdLife International","2008/06/13",NA,NA,-1,"BirdLife International: Global IBA Layer - 13th June 2008",NA,"Refined polygon",NA,1.5190790792,0.08361606432,38.7318626505,-6.91453423943,0,80830,1741,0,-9999,-9999,-9999,67.312471387792,66.643920300907,65.501957641301
"153",11979,1519,1749,"Europe","Spain","ESP","Azuaga - Llerena - Peraleda de Zaucejo","Azuaga-Llerena-Peraleda de Zaucejo","ES269",38.3333333333,-5.66666666667,147000,"Some",6,"confirmed","confirmed",NA,NA,"Gill Bunting, BirdLife International","2008/06/13",NA,NA,-1,"BirdLife International: Global IBA Layer - 13th June 2008",NA,"Refined polygon",NA,2.94959091872,0.15974649312,38.3269960406,-5.80423701168,0,155295,1749,0,-9999,-9999,-9999,14.95090600891,14.810792631717,14.563574038209
"154",11988,1528,1758,"Europe","Spain","ESP","Lagunas de Las Caas y de Laguardia","Las Caas lake","ES082",42.4833333333,-2.4,101,"Whole",2,"confirmed","confirmed",NA,NA,"Gill Bunting, BirdLife International","2008/06/13",NA,NA,-1,"BirdLife International: Global IBA Layer - 13th June 2008",NA,"Refined polygon",NA,0.06967666179,0.00027657445,42.485310303,-2.39751718745,0,252.748,1758,0,-9999,-9999,-9999,691.53271484375,700.518981933594,704.362487792969
"155",12006,1558,1788,"Europe","Spain","ESP","Sotos de los Ros Cinca, Alcanadre y Segre","Rivers Cinca and Alcanadre riverine forest","ES109",41.7833333333,0.2,9450,"Most",2,"confirmed","confirmed",NA,NA,"Gill Bunting, BirdLife International","2008/06/13",NA,NA,-1,"BirdLife International: Global IBA Layer - 13th June 2008",NA,"Refined polygon",NA,2.46113122196,0.00876035542,41.6892484453,0.1589425287,0,8106.73,1788,0,-9999,-9999,-9999,25.125032892776,24.771211010596,24.23977935598
"156",12024,1576,1806,"Europe","Spain","ESP","Ro Guadalope","River Guadalope","ES099",40.6666666667,-0.58333333333,31800,"Whole",2,"confirmed","confirmed",NA,NA,"Gill Bunting, BirdLife International","2008/06/13",NA,NA,-1,"BirdLife International: Global IBA Layer - 13th June 2008",NA,"Refined polygon",NA,1.24305436671,0.03575652033,40.7040156578,-0.49554474509,0,33590.6,1806,0,-9999,-9999,-9999,2.769595927714,2.659595610907,2.531837787434
"157",12074,1626,1856,"Europe","Spain","ESP","Condado - Campia","Condado-Campia","ES260",37.3666666667,-6.65,56500,"Little/none",1,"confirmed","confirmed",NA,NA,"Gill Bunting, BirdLife International","2008/06/13",NA,NA,-1,"BirdLife International: Global IBA Layer - 13th June 2008",NA,"Refined polygon",NA,1.44614232381,0.05771537607,37.3822186063,-6.62393659339,0,56830.8,1856,0,-9999,-9999,-9999,61.114961304533,61.653146295054,61.735618870181
"158",12088,1640,1870,"Europe","Spain","ESP","Sierras de Ubrique y Grazalema","Ubrique and Grazalema mountain ranges","ES243",36.6666666667,-5.41666666667,90500,"Most",7,"confirmed","confirmed",NA,NA,"Gill Bunting, BirdLife International","2008/06/13",NA,NA,-1,"BirdLife International: Global IBA Layer - 13th June 2008",NA,"Refined polygon",NA,2.13533841936,0.10356549594,36.7334335869,-5.32453311254,0,102854,1870,0,-9999,-9999,-9999,44.463370370937,45.436056718328,46.100469811667
"159",12104,1656,1886,"Europe","Spain","ESP","Cabo Pinar","Cape Pinar","ES317",39.8666666667,3.16666666667,2500,"Some",2,"confirmed","confirmed",NA,NA,"Gill Bunting, BirdLife International","2008/06/13",NA,NA,-1,"BirdLife International: Global IBA Layer - 13th June 2008",NA,"Refined polygon",NA,0.2474626425,0.00133032084,39.8633278722,3.17660922925,0,1265.38,1886,0,-9999,-9999,-9999,175.46940612793,188.687194824219,201.404296875
"160",12140,1696,1926,"Europe","Spain","ESP","Don Benito - Guarea","Don Benito-Guarea","ES285",38.8333333333,-6,31000,"Little/none",3,"confirmed","confirmed",NA,NA,"Gill Bunting, BirdLife International","2008/06/13",NA,NA,-1,"BirdLife International: Global IBA Layer - 13th June 2008",NA,"Refined polygon",NA,0.99554030798,0.03511718129,38.879149254,-6.04354066051,0,33877,1926,0,-9999,-9999,-9999,34.174212993104,33.849977129477,33.281188780938
"161",12156,1713,1943,"Europe","Spain","ESP","Andvalo Occidental","West Andvalo","ES264",37.5,-7.25,45800,"Some",1,"confirmed","confirmed",NA,NA,"Gill Bunting, BirdLife International","2008/06/13",NA,NA,-1,"BirdLife International: Global IBA Layer - 13th June 2008",NA,"Refined polygon",NA,1.40089432487,0.05036899669,37.5590139025,-7.28981224441,0,49479.8,1943,0,-9999,-9999,-9999,11.281265808017,11.381161038246,11.395644851134
"162",12164,1722,1952,"Europe","Spain","ESP","Malpica - Ro Tajo","Malpica island (River Tagus)","ES200",39.9166666667,-4.56666666667,4,"Whole",1,"confirmed","confirmed",NA,NA,"Gill Bunting, BirdLife International","2008/06/13",NA,NA,-1,"BirdLife International: Global IBA Layer - 13th June 2008",NA,"Refined polygon",NA,0.02565506035,3.07296e-05,39.9230141507,-4.57163597317,0,29.204,1952,0,-9999,-9999,-9999,70.982482910156,73.597526550293,75.742111206055
"163",12183,1741,1973,"Europe","Spain","ESP","Jable de Famara","Famara sandy plain","WW332",29.1,-13.6,5700,"Whole",3,"confirmed","confirmed",NA,NA,"Gill Bunting, BirdLife International","2005/10/01",NA,NA,-1,"BirdLife International: Global IBA Layer - 13th June 2008",NA,"Refined polygon",NA,0.44025700582,0.00528074781,29.0864037734,-13.6004680883,0,5718.65,1973,0,-9999,-9999,-9999,45.959828171316,48.764725712718,51.359046298208
"164",12190,1748,1980,"Europe","Spain","ESP","Costa de Corralejo a Tostn","Coast between Corralejo and Tostn","WW350",28.75,-13.9166666667,530,"Most",1,"confirmed","confirmed",NA,NA,"Gill Bunting, BirdLife International","2005/10/01",NA,NA,-1,"BirdLife International: Global IBA Layer - 13th June 2008",NA,"Refined polygon",NA,0.45875367794,0.00156034437,28.7328948721,-13.9464593378,0,1695.5,1980,0,-9999,-9999,-9999,25.619470596313,27.184059143066,28.628080368042
"165",12232,1790,2022,"Europe","Spain","ESP","La Dehesa","La Dehesa grasslands","WW390",27.7333333333,-18.1333333333,2000,"Whole",3,"confirmed","confirmed",NA,NA,"Gill Bunting, BirdLife International","2005/10/01",NA,NA,-1,"BirdLife International: Global IBA Layer - 13th June 2008",NA,"Refined polygon",NA,0.16408204073,0.00187960821,27.733577772,-18.1327317957,0,2061.64,2022,0,-9999,-9999,-9999,24.384580612183,25.364799499512,26.19375038147
"166",12318,2457,2738,"Europe","Italy","ITA","Laguna di Caorle","Caorle lagoon","IT061",45.65,12.9166666667,5571,"Whole",4,"confirmed","confirmed",NA,NA,"Gill Bunting, BirdLife International","2008/06/13",NA,NA,-1,"BirdLife International: Global IBA Layer - 13th June 2008",NA,"Refined polygon",NA,0.88819793231,0.00793189829,45.6417780772,12.9547873871,0,6872.03,2738,0,-9999,-9999,-9999,96.631685336957,97.853822939706,98.319297689476
"167",12402,2548,2853,"Europe","Italy","ITA","Stagni della Piana Fiorentina","Pools of Florence plain","IT083",43.8,11.0666666667,1109,"Most",1,"confirmed","confirmed",NA,NA,"Gill Bunting, BirdLife International","2008/06/13",NA,NA,-1,"BirdLife International: Global IBA Layer - 13th June 2008",NA,"Refined polygon",NA,0.44202657286,0.00124096984,43.8075426225,11.1119838263,0,1109.79,2853,0,-9999,-9999,-9999,1099.40114539778,1127.12372771787,1147.68977807273
"168",12412,2567,2876,"Europe","Italy","ITA","Biviere e Piana di Gela","Biviere and Plain of Gela","IT166",37.0166666667,14.3333333333,36008,"Most",5,"confirmed","confirmed",NA,NA,"Gill Bunting, BirdLife International","2008/06/13",NA,NA,-1,"BirdLife International: Global IBA Layer - 13th June 2008",NA,"Refined polygon",NA,2.04519902786,0.04177170853,37.1151734944,14.2615776674,0,41277.5,2876,0,-9999,-9999,-9999,184.949081004268,187.075155166665,187.706309624393
"169",12416,2571,2884,"Europe","Italy","ITA","Monti della Daunia","Daunia mountains","IT126",41.6666666667,15.1,75027,"Some",11,"confirmed","confirmed",NA,NA,"Gill Bunting, BirdLife International","2008/06/13",NA,NA,-1,"BirdLife International: Global IBA Layer - 13th June 2008",NA,"Refined polygon",NA,2.47804218263,0.08044897218,41.4937447949,15.0870593546,0,74672.3999998,2884,0,-9999,-9999,-9999,43.290051087125,41.11382555271,38.772126123187
"170",12418,2575,2892,"Europe","Italy","ITA","Sentina","Sentina","IT087",43.4833333333,13.6666666667,122,"Whole",2,"confirmed","confirmed",NA,NA,"Gill Bunting, BirdLife International","2008/06/13",NA,NA,-1,"BirdLife International: Global IBA Layer - 13th June 2008",NA,"Refined polygon",NA,0.07376408666,0.00013356258,42.8998330721,13.9102919002,0,121.244,2892,0,-9999,-9999,-9999,1123.92004394531,1173.57299804688,1215.69104003906
"171",12453,3358,6169,"Africa","Algeria","DZA","Garaet et-Tarf","Garaet et-Tarf","DZ014",35.6666666667,7.15,30000,"Little/none",0,"confirmed","confirmed",NA,"Dan Omolo, BirdLife International","Gill Bunting, BirdLife International","2007/08/02",NA,NA,-1,"IBA directory description","Digitised from Google Earth imagery. Interpretation from IBA directory","Draft polygon",NA,0.75091769905,0.02309627722,35.678592267,7.13333704323,0,23248.9,6169,1,-9999,-9999,-9999,68.151188982545,76.437076982443,84.174476435054
"172",12505,3686,6514,"Africa","Morocco","MAR","Plage Blanche - Ras Takoumba","Plage Blanche - Ras Takoumba","MA039",28.8833333333,-10.75,25000,"Little/none",0,"confirmed","confirmed",NA,NA,"Gill Bunting, BirdLife International","2007/08/02",NA,NA,-1,"IBA directory description","Digitised from Google Earth imagery. Interpretation from IBA directory - Need to consult to check accuracy of interpretation","Draft polygon",NA,0.92503584522,0.00377209881,28.9062469568,-10.7283798089,0,4092.04,6514,1,-9999,-9999,-9999,11.975700378418,13.197750091553,14.354860305786
"173",12519,4079,6927,"Africa","Tunisia","TUN","Sebkhet Sedjoumi","Sebkhet Sedjoumi","TN010",36.75,10.1333333333,2700,"Whole",1,"confirmed","confirmed",NA,NA,"Gill Bunting, BirdLife International",NA,NA,NA,-1,NA,NA,"Draft polygon",NA,0.29425025154,0.00272995922,36.7589877263,10.1510087175,0,2710.3,6927,1,-9999,-9999,-9999,1832.66058699492,1943.3843053344,1999.32747499502
"174",12523,4083,6931,"Africa","Tunisia","TUN","Lagune de Korba","Lagune de Korba","TN014",36.6833333333,10.9333333333,1200,"Whole",1,"confirmed","confirmed",NA,NA,"Gill Bunting, BirdLife International",NA,NA,NA,-1,NA,NA,"Draft polygon",NA,0.18187387221,0.00037989478,36.6147432218,10.8907049763,0,377.867,6931,1,-9999,-9999,-9999,186.66960144043,204.255996704102,216.302597045898
"175",12534,4094,6942,"Africa","Tunisia","TUN","Chambi","Chambi","TN025",35.1,8.71666666667,6723,"Whole",2,"confirmed","confirmed",NA,NA,"Gill Bunting, BirdLife International",NA,NA,NA,-1,"Retained in favour of KBA and WDPA polygon as spatial registration appears better",NA,"Draft polygon",NA,0.45562533969,0.00754281159,35.2063041311,8.69956118932,0,7637.32,6942,1,-9999,-9999,-9999,43.963088989258,48.80685043335,51.010738372803
"176",12792,0,102,"Europe","Bosnia and Herzegovina","BIH","Hutovo blato","Hutovo blato","BA001",43.05,17.6166666667,7411,"Whole",1,"confirmed","confirmed",NA,"Gill Bunting","Gill Bunting, BirdLife International","2013/06/26",NA,NA,0,"Retained in preference to KBA polygon as covers a larger area, better reflecting the text description","Digitized in Google Earth by Gill Bunting at BirdLife International, based on sketch maps availible on the Internet in June 2013","Draft polygon",NA,0.44400885367,0.00931799834,43.0570050982,17.7839074129,0,8437.02,102,0,-9999,-9999,-9999,104.647003173828,81.132347106934,92.043212890625
"177",12912,993,6138,"Africa","Cape Verde","CPV","Ribeira do Rabil","Ribeira do Rabil","CV002",16.1333333333,-22.9,300,"Little/none",0,"confirmed","confirmed",NA,"CEPF","Gill Bunting, BirdLife International","2013/12/02",NA,"1899/12/30",0,"CEPF Mediteranean Hotspot Profile, 2011 , original source IBA directory description digitized by BirdLife International",NA,"Draft Polygon",NA,0.0804663121,0.0004000333,16.1420863075,-22.8992682798,0,476.179,6138,1,-9999,-9999,-9999,4.977672100067,5.688316822052,6.48720407486
"178",14758,0,7148,"Africa","South Africa","ZAF","Alexandria coastal belt","Alexandria coastal belt","ZA073",-33.7,26.2666666667,15460,"Some",1,"confirmed",NA,NA,"Ernst Retief, BirdLife South Africa","Gill Bunting, BirdLife International","2014/06/04",NA,NA,0,"Updated Version provided by partner in May 2014",NA,"Refined polygon",NA,2.44205137206,0.13222690685,0,0,0,136417,7148,1,-9999,-9999,-9999,8.72194802296,9.938060501567,10.951005196393
"179",14760,0,7169,"Africa","South Africa","ZAF","Overberg Wheatbelt","Overberg Wheatbelt","ZA094",-34.4166666667,19.9,300000,"Little/none",0,"confirmed",NA,NA,"Ernst Retief, BirdLife South Africa","Gill Bunting, BirdLife International","2014/06/04",NA,NA,0,"Updated Version provided by partner in May 2014",NA,"Refined polygon",NA,7.03995747319,0.7229122601,0,0,0,739741,7169,1,-9999,-9999,-9999,5.987755010937,6.652040789687,7.348732145057
"180",14767,0,7082,"Africa","South Africa","ZAF","Nyl River Floodplain","Nyl River Floodplain","ZA007",-24.65,28.7,16000,"Some",2,"confirmed",NA,NA,"Ernst Retief, BirdLife South Africa","Gill Bunting, BirdLife International","2014/06/04",NA,NA,0,"Updated Version provided by partner in May 2014",NA,"Refined polygon",NA,1.22497249274,0.03887548336,0,0,0,43834,7082,1,-9999,-9999,-9999,3.649084530664,4.879154378718,6.313992920744
"181",14769,0,7092,"Africa","South Africa","ZAF","Pilanesberg National Park","Pilanesberg National Park","ZA017",-25.25,27.0833333333,50000,"Whole",1,"confirmed",NA,NA,"Ernst Retief, BirdLife South Africa","Gill Bunting, BirdLife International","2014/06/04",NA,NA,0,"Updated Version provided by partner in May 2014",NA,"Refined polygon",NA,1.04217920899,0.04442482935,0,0,0,49794.5,7092,1,-9999,-9999,-9999,27.232493605966,25.710234419502,23.477012579544
"182",14779,0,7089,"Africa","South Africa","ZAF","Amersfoort - Bethal - Carolina District","Amersfoort - Bethal - Carolina District","ZA014",-26.5333333333,29.8333333333,120000,"Little/none",0,"confirmed",NA,NA,"Ernst Retief, BirdLife South Africa","Gill Bunting, BirdLife International","2014/06/04",NA,NA,0,"Updated Version provided by partner in May 2014",NA,"Refined polygon",NA,2.5739806312,0.31083986941,0,0,0,344713,7089,1,-9999,-9999,-9999,17.648263434788,22.220862576787,27.13886369769
"183",14790,0,7163,"Africa","South Africa","ZAF","Dassen Island","Dassen Island","ZA088",-33.4166666667,18.0833333333,273,"Whole",2,"confirmed",NA,NA,"Ernst Retief, BirdLife South Africa","Gill Bunting, BirdLife International","2014/06/04",NA,NA,0,"Updated Version provided by partner in May 2014",NA,"Refined polygon",NA,0.11155311369,0.0007143896,0,0,0,738.871,7163,1,-9999,-9999,-9999,0,0,0
"184",14831,0,7127,"Africa","South Africa","ZAF","Umvoti Vlei","Umvoti Vlei","ZA052",-29.15,30.5666666667,2800,"Little/none",1,"confirmed",NA,NA,"Ernst Retief, BirdLife South Africa","Gill Bunting, BirdLife International","2014/06/04",NA,NA,0,"Updated Version provided by partner in May 2014",NA,"Refined polygon",NA,0.30501316862,0.00393521428,0,0,0,4258.28,7127,1,-9999,-9999,-9999,11.632806536412,11.504565343066,10.980382960957
"185",14847,0,7140,"Africa","South Africa","ZAF","Umtamvuna Nature Reserve","Umtamvuna Nature Reserve","ZA065",-31,30.1666666667,3257,"Whole",1,"confirmed",NA,NA,"Ernst Retief, BirdLife South Africa","Gill Bunting, BirdLife International","2014/06/04",NA,NA,0,"Updated Version provided by partner in May 2014",NA,"Refined polygon",NA,0.57242150931,0.00247605683,0,0,0,2630.58,7140,1,-9999,-9999,-9999,50.113882622249,56.105768116427,60.804089378303
"186",14858,0,7154,"Africa","South Africa","ZAF","Bird Island","Bird Island","ZA079",-32.0833333333,18.3,3,"Whole",1,"confirmed",NA,NA,"Ernst Retief, BirdLife South Africa","Gill Bunting, BirdLife International","2014/06/04",NA,NA,0,"Updated Version provided by partner in May 2014",NA,"Refined polygon",NA,0.01483916663,9.36409e-06,0,0,0,9.83115,7154,1,-9999,-9999,-9999,249.295394897461,318.650909423828,393.509002685547
"187",14990,1906,2150,"Europe","France","FRA","Montagne de la Serre","Montagne de la Serre","FR151",45.6666666667,3.06666666667,2600,"Whole",1,"confirmed",NA,NA,"LPO","Gill Bunting, BirdLife International","2008/06/13",NA,NA,-1,"LPO",NA,"Refined polygon",NA,0.31448162747,0.00303066181,45.6815509457,3.06598288474,0,2623.84,2150,0,-9999,-9999,-9999,107.993112095615,114.764640228093,121.190263212773
"188",15081,1998,2242,"Europe","France","FRA","Fort d'Orlans: massifs d'Ingrannes et de Lorris","Fort d'Orlans: massifs d'Ingrannes et de Lorris","FR136",47.9,2.33333333333,40400,"Most",2,"confirmed",NA,NA,"LPO","Gill Bunting, BirdLife International","2008/06/13",NA,NA,-1,"LPO",NA,"Refined polygon",NA,2.10742142887,0.04888900006,47.9243473,2.32465087725,0,40597.6,2242,0,-9999,-9999,-9999,32.808693575817,34.92831129816,36.922802066972
"189",15084,2013,2257,"Europe","France","FRA","Bassin du Drugeon: Pontarlier-Frasne","Bassin du Drugeon: Pontarlier-Frasne","FR094",46.85,6.2,12500,"Whole",4,"confirmed",NA,NA,"LPO","Gill Bunting, BirdLife International","2008/06/13",NA,NA,-1,"LPO",NA,"Refined polygon",NA,0.73621143524,0.01490766814,46.8539904827,6.20381990857,0,12633.4,2257,0,-9999,-9999,-9999,32.808220006482,34.4108503335,35.873189190583
"190",15121,2076,2322,"Europe","France","FRA","Marais de Balanon et de Villiers","Marais de Balanon et de Villiers","FR063",50.4666666667,1.63333333333,1500,"Most",1,"confirmed",NA,NA,"LPO","Gill Bunting, BirdLife International","2008/06/13",NA,NA,-1,"LPO",NA,"Refined polygon",NA,0.24197280166,0.00189493579,50.4620621779,1.63371738373,0,1494.84,2322,0,-9999,-9999,-9999,157.64263785226,166.632254900251,174.937978399368
"191",15128,2109,2355,"Europe","France","FRA","Valle de la Charente et de la Seugne (Cabariot-Pons/St-Sever-de-Saintonge)","Valle de la Charente et de la Seugne (Cabariot-Pons/St-Sever-de-Saintonge)","FR102",45.7666666667,-0.66666666667,8300,"Whole",5,"confirmed",NA,NA,"LPO","Gill Bunting, BirdLife International","2008/06/13",NA,NA,-1,"LPO",NA,"Refined polygon",NA,1.7069402149,0.00961367249,45.7856921592,-0.65904518717,0,8307.66,2355,0,-9999,-9999,-9999,91.025333099919,92.741869398557,93.764613315977
"192",15130,2111,2357,"Europe","France","FRA","Anse de Fouras, baie d'Yves et marais de Rochefort","Anse de Fouras, baie d'Yves et marais de Rochefort","FR104",46.0166666667,-0.95,17550,"Whole",3,"confirmed",NA,NA,"LPO","Gill Bunting, BirdLife International","2008/06/13",NA,NA,-1,"LPO",NA,"Refined polygon",NA,1.33519643017,0.02042917317,46.0199515952,-0.95405976195,0,17579.6,2357,0,-9999,-9999,-9999,95.967185962797,101.934974369505,107.521391120374
"193",15139,2120,2366,"Europe","France","FRA","Plaines de Mirebeau et de Neuville-du-Poitou","Plaines de Mirebeau et de Neuville-du-Poitou","FR113",46.6666666667,0.2,10250,"Most",1,"confirmed",NA,NA,"LPO","Gill Bunting, BirdLife International","2008/06/13",NA,NA,-1,"LPO",NA,"Refined polygon",NA,0.68060651322,0.01213113278,46.6769686706,0.20905245524,0,10314.3,2366,0,-9999,-9999,-9999,93.86890593914,101.247176593901,108.438294908037
"194",15178,2165,2411,"Europe","France","FRA","Haut Giffre","Haut Giffre","FR175",46.0666666667,6.8,20850,"Whole",5,"confirmed",NA,NA,"LPO","Gill Bunting, BirdLife International","2008/06/13",NA,NA,-1,"LPO",NA,"Refined polygon",NA,1.01636288124,0.02352070918,46.0714838168,6.79528614315,0,20221.6,2411,0,-9999,-9999,-9999,30.1534232082,31.47241174174,32.566938866221
"195",15212,2060,2305,"Europe","France","FRA","Petite Camargue fluvio-lacustre","Petite Camargue fluvio-lacustre","FR234",43.6333333333,4.3,19300,"Whole",5,"confirmed","confirmed",NA,"LPO","Gill Bunting, BirdLife International","2008/06/13",NA,NA,-1,"LPO",NA,"Refined polygon",NA,1.4602882539,0.02160983751,43.6061162409,4.32663020445,0,19390.6,2305,0,-9999,-9999,-9999,74.391454568276,76.999987539573,79.157095010464
"196",15218,2080,2326,"Europe","France","FRA","Moyenne Valle de la Durance","Moyenne Valle de la Durance","FR238",43.9,5.85,11300,"Whole",2,"confirmed","confirmed",NA,"LPO","Gill Bunting, BirdLife International","2008/06/13",NA,NA,-1,"LPO",NA,"Refined polygon",NA,1.38952893167,0.01266305305,43.8562075495,5.85360824085,0,11315.3,2326,0,-9999,-9999,-9999,83.505686646979,87.407214204142,90.830890697553
"197",15230,2092,2338,"Europe","France","FRA","Plateau de l'Arbois, garrigues de Lancon et chane des Ctes","Plateau de l'Arbois, garrigues de Lancon et chane des Ctes","FR250",43.5666666667,5.2,34500,"Whole",3,"confirmed","confirmed",NA,"LPO","Gill Bunting, BirdLife International","2008/06/13",NA,NA,-1,"LPO",NA,"Refined polygon",NA,1.65690958918,0.03870709576,43.6007976214,5.22096005863,0,34735.1,2338,0,-9999,-9999,-9999,224.169888063998,238.468538749175,251.809354344576
"198",15708,0,1573,"Europe","Russia (European)","---","Dolina reki Kurdzhips","Kurdzhips river valley","RU1155",44.1666666667,39.9833333333,4500,"Most",1,"confirmed",NA,NA,"Tatiana Sviridova","Gill Bunting, BirdLife International","2014/09/21",NA,NA,0,"Provided by Tatiana Sviridova who produced the dataset for RBCU / Transparent World",NA,"Refined polygon",NA,0.4263861928,0.00505693364,0,0,0,4494.95,1573,0,-9999,-9999,-9999,33.719253566257,34.052010146203,33.516055497107
"199",15792,0,1539,"Europe","Russia (European)","---","Poluostrov Kanin","Kanin peninsula","RU1034",66.6666666667,44.6666666667,500000,"Little/none",0,"confirmed",NA,NA,"Tatiana Sviridova","Gill Bunting, BirdLife International","2014/09/21",NA,NA,0,"Provided by Tatiana Sviridova who produced the dataset for RBCU / Transparent World",NA,"Refined polygon",NA,1.88644808117,0.06215476453,0,0,0,30393.9,1539,0,-9999,-9999,-9999,0.095149323635,0.078872002952,0.063714332879
"200",15831,0,1586,"Europe","Russia (European)","---","Shilovskaya poima Oki","Shilovo flood-plain of Oka river","RU1086",54.3333333333,40.75,22000,"Whole",1,"confirmed",NA,NA,"Tatiana Sviridova","Gill Bunting, BirdLife International","2014/09/21",NA,NA,0,"Provided by Tatiana Sviridova who produced the dataset for RBCU / Transparent World",NA,"Refined polygon",NA,1.00126983374,0.03433756037,0,0,0,24777.4,1586,0,-9999,-9999,-9999,18.364446827464,17.755910615428,16.729953660549
"201",15878,0,1440,"Europe","Russia (European)","---","Prisur'ye","Sura environs","RU1188",55.05,46.5333333333,47920,"Little/none",1,"confirmed",NA,NA,"Tatiana Sviridova","Gill Bunting, BirdLife International","2014/09/21",NA,NA,0,"Provided by Tatiana Sviridova who produced the dataset for RBCU / Transparent World",NA,"Refined polygon",NA,1.6870113577,0.06735999793,0,0,0,47808.5,1440,0,-9999,-9999,-9999,34.442282357494,34.780362779176,34.226668407279
"202",16111,2633,2955,"Europe","Denmark","DNK","Dele af Randers og Mariager Fjorde","Parts of Randers and Mariager Fjords","DK015",56.65,10.1666666667,7500,"Whole",1,"confirmed",NA,NA,NA,"Gill Bunting, BirdLife International","2012/10/09",NA,"1899/12/30",0,"Provided by Partner for Marine eAtlas in October 2012",NA,"Refined polygon",NA,1.91565831268,0.01981487282,0,0,0,13493.3,2955,0,-9999,-9999,-9999,46.108525891296,46.402771043023,46.707890730122
"203",16129,2653,2975,"Europe","Denmark","DNK","Ballum og Husum Enge","Ballum og Husum Enge, Kamper strandenge","DK067",55.1333333333,8.71666666667,4280,"Whole",3,"confirmed",NA,NA,NA,"Gill Bunting, BirdLife International","2006/09/01","00:00:00",NA,0,"BirdLife International: Global IBA Layer - 13th June 2008",NA,"Refined polygon",NA,0.63445898231,0.00606776189,0,0,0,4296.98,2975,0,-9999,-9999,-9999,28.143952117007,27.448943510354,26.779076410495
"204",16131,2655,2977,"Europe","Denmark","DNK","Vejen Mose","Vejen Mose","DK054",55.5166666667,9.08333333333,460,"Whole",1,"confirmed",NA,NA,NA,"Gill Bunting, BirdLife International","2006/09/01","00:00:00",NA,0,"BirdLife International: Global IBA Layer - 13th June 2008",NA,"Refined polygon",NA,0.1577609533,0.00065830158,0,0,0,462,2977,0,-9999,-9999,-9999,67.046746253967,67.504256439209,67.975609016418
"205",16133,2657,2979,"Europe","Denmark","DNK","Hostrup S, Assenholm Mose og Felsted Vestermark","Hostrup S, Assenholm Mose and Felsted Vestermark","DK058",54.95,9.45,1330,"Whole",1,"confirmed",NA,NA,NA,"Gill Bunting, BirdLife International","2006/09/01","00:00:00",NA,0,"BirdLife International: Global IBA Layer - 13th June 2008",NA,"Refined polygon",NA,0.26831420001,0.00186199271,0,0,0,1324.63,2979,0,-9999,-9999,-9999,113.311023573442,112.479133397883,111.674652134288
"206",16179,2723,3046,"Europe","Denmark","DNK","Norsminde (Kysing) Fjord","Norsminde (Kysing) Fjord","DK030",56,10.3333333333,370,"Whole",1,"confirmed",NA,NA,NA,"Gill Bunting, BirdLife International","2012/10/09",NA,"1899/12/30",0,"Provided by Partner for Marine eAtlas in October 2012",NA,"Refined polygon",NA,0.18888711175,0.00083151345,0,0,0,576.005,3046,0,-9999,-9999,-9999,396.219762166341,407.210683186849,418.565572102865
"207",16192,0,3049,"Europe","Denmark","DNK","Skove og heder ved Bryrup","Forest areas south of Silkeborg","DK034",56.0166666667,9.46666666667,5070,"Whole",1,"confirmed",NA,NA,NA,"Gill Bunting, BirdLife International","2013/05/29",NA,"1899/12/30",0,"Provided by partner via marine team in May 2013","Provided by partner via marine team in May 2013","Refined polygon",NA,1.05945079731,0.00783695605,0,0,0,5426.02,3049,0,-9999,-9999,-9999,32.132784983374,32.670212666014,33.226287428466
